{"type":"FeatureCollection","_about":"Railway land in Liverpool from OpenStreetMap landuse=railway (ODbL). A stand-in: Network Rail's own boundary is not open.","features":[{"type":"Feature","properties":{"source":"OSM landuse=railway","osm_id":180890884,"operator":null},"geometry":{"type":"Polygon","coordinates":[[[-2.94899,53.40158],[-2.95262,53.40124],[-2.95269,53.40149],[-2.95199,53.40155],[-2.95198,53.40151],[-2.95127,53.40163],[-2.94892,53.40187],[-2.94899,53.40158]]]}},{"type":"Feature","properties":{"source":"OSM landuse=railway","osm_id":180893494,"operator":null},"geometry":{"type":"Polygon","coordinates":[[[-2.97809,53.44239],[-2.97733,53.44277],[-2.9771,53.44261],[-2.97786,53.44223],[-2.97809,53.44239]]]}},{"type":"Feature","properties":{"source":"OSM landuse=railway","osm_id":221902999,"operator":null},"geometry":{"type":"Polygon","coordinates":[[[-2.976,53.40794],[-2.97517,53.40792],[-2.97526,53.4076],[-2.97358,53.40735],[-2.97361,53.40728],[-2.97356,53.40728],[-2.97363,53.40713],[-2.97398,53.40711],[-2.97512,53.40684],[-2.97528,53.40687],[-2.97532,53.40694],[-2.97551,53.40702],[-2.97601,53.40697],[-2.976,53.40794]]]}},{"type":"Feature","properties":{"source":"OSM landuse=railway","osm_id":221903000,"operator":null},"geometry":{"type":"Polygon","coordinates":[[[-2.9721,53.40685],[-2.97197,53.40708],[-2.97175,53.40704],[-2.97177,53.40696],[-2.97069,53.40676],[-2.97065,53.40683],[-2.97035,53.40678],[-2.97038,53.40671],[-2.96964,53.40659],[-2.9695,53.40664],[-2.96897,53.40651],[-2.969,53.40632],[-2.96912,53.40633],[-2.9721,53.40685]]]}},{"type":"Feature","properties":{"source":"OSM landuse=railway","osm_id":221903001,"operator":null},"geometry":{"type":"Polygon","coordinates":[[[-2.96382,53.40551],[-2.96383,53.40541],[-2.96421,53.40547],[-2.9642,53.40553],[-2.96382,53.40551]]]}},{"type":"Feature","properties":{"source":"OSM landuse=railway","osm_id":221903002,"operator":null},"geometry":{"type":"Polygon","coordinates":[[[-2.9576,53.40448],[-2.95684,53.40435],[-2.95683,53.40422],[-2.95766,53.40433],[-2.9576,53.40448]]]}},{"type":"Feature","properties":{"source":"OSM landuse=railway","osm_id":221903003,"operator":null},"geometry":{"type":"Polygon","coordinates":[[[-2.95975,53.40486],[-2.95888,53.40472],[-2.95787,53.40453],[-2.95794,53.40438],[-2.95982,53.40471],[-2.95975,53.40486]]]}},{"type":"Feature","properties":{"source":"OSM landuse=railway","osm_id":221903004,"operator":null},"geometry":{"type":"Polygon","coordinates":[[[-2.95258,53.40345],[-2.95251,53.40358],[-2.95245,53.40358],[-2.94928,53.4031],[-2.94931,53.40287],[-2.95258,53.40345]]]}},{"type":"Feature","properties":{"source":"OSM landuse=railway","osm_id":221903005,"operator":null},"geometry":{"type":"Polygon","coordinates":[[[-2.95583,53.40415],[-2.95444,53.40393],[-2.95443,53.40377],[-2.95582,53.40401],[-2.95583,53.40415]]]}},{"type":"Feature","properties":{"source":"OSM landuse=railway","osm_id":221903006,"operator":null},"geometry":{"type":"Polygon","coordinates":[[[-2.96097,53.40507],[-2.96106,53.40489],[-2.96147,53.40496],[-2.96138,53.40515],[-2.96097,53.40507]]]}},{"type":"Feature","properties":{"source":"OSM landuse=railway","osm_id":221903007,"operator":null},"geometry":{"type":"Polygon","coordinates":[[[-2.95608,53.40422],[-2.95607,53.40406],[-2.95669,53.40417],[-2.9567,53.40433],[-2.95608,53.40422]]]}},{"type":"Feature","properties":{"source":"OSM landuse=railway","osm_id":251431817,"operator":null},"geometry":{"type":"Polygon","coordinates":[[[-2.97642,53.39216],[-2.97625,53.39219],[-2.97628,53.39181],[-2.97647,53.39178],[-2.97642,53.39216]]]}},{"type":"Feature","properties":{"source":"OSM landuse=railway","osm_id":251432394,"operator":null},"geometry":{"type":"Polygon","coordinates":[[[-2.97641,53.39368],[-2.97637,53.39428],[-2.97641,53.39428],[-2.97641,53.3944],[-2.97637,53.39443],[-2.97607,53.39434],[-2.97612,53.39373],[-2.97641,53.39368]]]}},{"type":"Feature","properties":{"source":"OSM landuse=railway","osm_id":251432564,"operator":null},"geometry":{"type":"Polygon","coordinates":[[[-2.97636,53.39012],[-2.97656,53.39014],[-2.97654,53.39041],[-2.97635,53.39038],[-2.97636,53.39012]]]}},{"type":"Feature","properties":{"source":"OSM landuse=railway","osm_id":251432566,"operator":null},"geometry":{"type":"Polygon","coordinates":[[[-2.97663,53.38888],[-2.97647,53.38888],[-2.97649,53.38876],[-2.97663,53.38876],[-2.97663,53.38888]]]}},{"type":"Feature","properties":{"source":"OSM landuse=railway","osm_id":251432569,"operator":null},"geometry":{"type":"Polygon","coordinates":[[[-2.97657,53.38702],[-2.97655,53.38612],[-2.97685,53.38607],[-2.97678,53.38703],[-2.97657,53.38702]]]}},{"type":"Feature","properties":{"source":"OSM landuse=railway","osm_id":268977362,"operator":null},"geometry":{"type":"Polygon","coordinates":[[[-2.9816,53.39835],[-2.9818,53.39847],[-2.98178,53.39857],[-2.98131,53.39858],[-2.9812,53.39852],[-2.9816,53.39835]]]}},{"type":"Feature","properties":{"source":"OSM landuse=railway","osm_id":268977879,"operator":null},"geometry":{"type":"Polygon","coordinates":[[[-2.98198,53.39824],[-2.98195,53.39826],[-2.98175,53.39814],[-2.98187,53.39806],[-2.98198,53.39824]]]}},{"type":"Feature","properties":{"source":"OSM landuse=railway","osm_id":269931930,"operator":null},"geometry":{"type":"Polygon","coordinates":[[[-2.99469,53.41278],[-2.9949,53.4127],[-2.99516,53.41268],[-2.99532,53.41321],[-2.99557,53.41541],[-2.99535,53.41542],[-2.99528,53.41468],[-2.99516,53.41404],[-2.99495,53.41405],[-2.99459,53.41395],[-2.99442,53.41383],[-2.99444,53.4136],[-2.99469,53.4135],[-2.99484,53.41356],[-2.99506,53.41349],[-2.99499,53.41346],[-2.99469,53.41278]]]}},{"type":"Feature","properties":{"source":"OSM landuse=railway","osm_id":269931933,"operator":null},"geometry":{"type":"Polygon","coordinates":[[[-2.98646,53.43867],[-2.9855,53.43877],[-2.98445,53.43906],[-2.98438,53.43899],[-2.98503,53.43879],[-2.98602,53.43862],[-2.98645,53.43859],[-2.98646,53.43867]]]}},{"type":"Feature","properties":{"source":"OSM landuse=railway","osm_id":269931938,"operator":null},"geometry":{"type":"Polygon","coordinates":[[[-2.98105,53.44119],[-2.98064,53.44107],[-2.98209,53.43965],[-2.98191,53.43953],[-2.98196,53.43922],[-2.98208,53.43923],[-2.98227,53.43906],[-2.98244,53.439],[-2.98269,53.43906],[-2.98598,53.43578],[-2.98628,53.43556],[-2.98857,53.4333],[-2.98865,53.43366],[-2.98723,53.4351],[-2.98702,53.43541],[-2.98692,53.43568],[-2.98688,53.43596],[-2.98695,53.43671],[-2.98709,53.43699],[-2.98732,53.43727],[-2.98695,53.43735],[-2.98686,53.43732],[-2.98636,53.4358],[-2.98576,53.43628],[-2.98193,53.44007],[-2.98195,53.44014],[-2.9817,53.44038],[-2.98186,53.44044],[-2.98105,53.44119]]]}},{"type":"Feature","properties":{"source":"OSM landuse=railway","osm_id":269931941,"operator":null},"geometry":{"type":"Polygon","coordinates":[[[-2.99342,53.4255],[-2.99317,53.42551],[-2.99467,53.41974],[-2.99466,53.41911],[-2.99486,53.4191],[-2.99489,53.41884],[-2.99539,53.41709],[-2.99546,53.41648],[-2.99535,53.41542],[-2.99557,53.41541],[-2.99568,53.41624],[-2.99567,53.4168],[-2.99561,53.41711],[-2.99342,53.4255]]]}},{"type":"Feature","properties":{"source":"OSM landuse=railway","osm_id":269931946,"operator":null},"geometry":{"type":"Polygon","coordinates":[[[-2.98125,53.44027],[-2.98052,53.44054],[-2.98045,53.44047],[-2.98116,53.44019],[-2.98125,53.44027]]]}},{"type":"Feature","properties":{"source":"OSM landuse=railway","osm_id":269931948,"operator":null},"geometry":{"type":"Polygon","coordinates":[[[-2.97811,53.44406],[-2.97783,53.44397],[-2.98038,53.44123],[-2.98059,53.44139],[-2.98063,53.44152],[-2.97963,53.44246],[-2.97811,53.44406]]]}},{"type":"Feature","properties":{"source":"OSM landuse=railway","osm_id":280277384,"operator":null},"geometry":{"type":"Polygon","coordinates":[[[-2.92917,53.40049],[-2.92907,53.39993],[-2.92853,53.39795],[-2.9287,53.39789],[-2.92842,53.39728],[-2.92873,53.39724],[-2.92984,53.39918],[-2.9301,53.40063],[-2.92917,53.40049]]]}},{"type":"Feature","properties":{"source":"OSM landuse=railway","osm_id":280288461,"operator":null},"geometry":{"type":"Polygon","coordinates":[[[-2.92105,53.38606],[-2.9214,53.38589],[-2.92184,53.38651],[-2.92316,53.38805],[-2.92468,53.39033],[-2.92557,53.3918],[-2.92705,53.39405],[-2.92815,53.39585],[-2.92864,53.39674],[-2.92858,53.39685],[-2.92873,53.39724],[-2.92842,53.39728],[-2.92832,53.39711],[-2.9283,53.39714],[-2.92744,53.39583],[-2.92511,53.39193],[-2.9239,53.39029],[-2.92388,53.39025],[-2.92404,53.39023],[-2.92392,53.39003],[-2.92366,53.38989],[-2.92253,53.38803],[-2.92105,53.38606]]]}},{"type":"Feature","properties":{"source":"OSM landuse=railway","osm_id":280288463,"operator":null},"geometry":{"type":"Polygon","coordinates":[[[-2.91871,53.38333],[-2.919,53.38317],[-2.9214,53.38589],[-2.92105,53.38606],[-2.91871,53.38333]]]}},{"type":"Feature","properties":{"source":"OSM landuse=railway","osm_id":295990428,"operator":null},"geometry":{"type":"Polygon","coordinates":[[[-2.92556,53.40674],[-2.92563,53.40635],[-2.92581,53.40637],[-2.92575,53.40675],[-2.92556,53.40674]]]}},{"type":"Feature","properties":{"source":"OSM landuse=railway","osm_id":295990441,"operator":null},"geometry":{"type":"Polygon","coordinates":[[[-2.92364,53.40506],[-2.92844,53.40452],[-2.92851,53.4047],[-2.92742,53.40492],[-2.92733,53.40483],[-2.92768,53.40471],[-2.92303,53.40526],[-2.92305,53.40534],[-2.92265,53.40535],[-2.92263,53.4053],[-2.9218,53.40539],[-2.92198,53.4052],[-2.92297,53.40508],[-2.92299,53.40511],[-2.92364,53.40506]]]}},{"type":"Feature","properties":{"source":"OSM landuse=railway","osm_id":295990449,"operator":null},"geometry":{"type":"Polygon","coordinates":[[[-2.92452,53.40675],[-2.92428,53.40677],[-2.92152,53.40613],[-2.92159,53.40604],[-2.92192,53.4061],[-2.92367,53.4065],[-2.92452,53.40675]]]}},{"type":"Feature","properties":{"source":"OSM landuse=railway","osm_id":296017929,"operator":null},"geometry":{"type":"Polygon","coordinates":[[[-2.92871,53.40468],[-2.92863,53.40449],[-2.93223,53.40411],[-2.93212,53.40384],[-2.93153,53.40369],[-2.93097,53.40348],[-2.93045,53.40322],[-2.93005,53.40292],[-2.92975,53.4026],[-2.92952,53.40227],[-2.92942,53.40199],[-2.92929,53.40061],[-2.92949,53.40064],[-2.92963,53.40197],[-2.92987,53.40246],[-2.92985,53.4015],[-2.92968,53.40068],[-2.92986,53.4007],[-2.93,53.40137],[-2.93007,53.40153],[-2.93011,53.40153],[-2.93011,53.4016],[-2.93036,53.40187],[-2.93078,53.40212],[-2.93283,53.40216],[-2.93416,53.40204],[-2.93419,53.40215],[-2.93491,53.40221],[-2.93502,53.40206],[-2.93662,53.40249],[-2.93644,53.40269],[-2.93642,53.403],[-2.93618,53.40309],[-2.93616,53.40329],[-2.93686,53.4033],[-2.939,53.40312],[-2.94026,53.40339],[-2.94192,53.40362],[-2.94185,53.40376],[-2.94045,53.40355],[-2.94044,53.4036],[-2.93923,53.40378],[-2.93936,53.404],[-2.93756,53.40424],[-2.93742,53.40403],[-2.93381,53.40449],[-2.93213,53.40438],[-2.92871,53.40468]]]}},{"type":"Feature","properties":{"source":"OSM landuse=railway","osm_id":296027014,"operator":null},"geometry":{"type":"Polygon","coordinates":[[[-2.91376,53.40552],[-2.91885,53.40537],[-2.91885,53.40543],[-2.91947,53.40541],[-2.92168,53.40528],[-2.92144,53.4055],[-2.91972,53.40559],[-2.91965,53.4057],[-2.91879,53.40563],[-2.91619,53.40573],[-2.91417,53.40575],[-2.91417,53.4057],[-2.91386,53.40571],[-2.91376,53.40552]]]}},{"type":"Feature","properties":{"source":"OSM landuse=railway","osm_id":296029972,"operator":null},"geometry":{"type":"Polygon","coordinates":[[[-2.9273,53.41017],[-2.92632,53.40843],[-2.9265,53.40844],[-2.92747,53.41017],[-2.9273,53.41017]]]}},{"type":"Feature","properties":{"source":"OSM landuse=railway","osm_id":296029980,"operator":null},"geometry":{"type":"Polygon","coordinates":[[[-2.92576,53.40687],[-2.92584,53.40726],[-2.92642,53.40831],[-2.92624,53.4083],[-2.92569,53.40759],[-2.92516,53.40719],[-2.92453,53.40686],[-2.92474,53.40685],[-2.92532,53.40714],[-2.92571,53.40744],[-2.92575,53.40742],[-2.92558,53.40713],[-2.92554,53.40686],[-2.92576,53.40687]]]}},{"type":"Feature","properties":{"source":"OSM landuse=railway","osm_id":296031569,"operator":null},"geometry":{"type":"Polygon","coordinates":[[[-2.92738,53.41039],[-2.92758,53.41039],[-2.92983,53.41437],[-2.92963,53.4144],[-2.92738,53.41039]]]}},{"type":"Feature","properties":{"source":"OSM landuse=railway","osm_id":296081890,"operator":null},"geometry":{"type":"Polygon","coordinates":[[[-2.99292,53.44167],[-2.99265,53.44172],[-2.99076,53.44009],[-2.98998,53.43947],[-2.99011,53.4394],[-2.98949,53.439],[-2.98873,53.43863],[-2.98802,53.43821],[-2.98746,53.43776],[-2.98722,53.43747],[-2.98752,53.43741],[-2.98758,53.43747],[-2.98753,53.43748],[-2.98776,53.43769],[-2.98838,53.43817],[-2.99003,53.43919],[-2.99089,53.43989],[-2.99292,53.44167]]]}},{"type":"Feature","properties":{"source":"OSM landuse=railway","osm_id":296100181,"operator":null},"geometry":{"type":"Polygon","coordinates":[[[-2.94875,53.40165],[-2.94872,53.40179],[-2.94568,53.40212],[-2.94467,53.40224],[-2.9446,53.40229],[-2.9458,53.40222],[-2.94659,53.40224],[-2.94797,53.40244],[-2.94842,53.40258],[-2.94838,53.40264],[-2.94708,53.40239],[-2.94699,53.40252],[-2.94853,53.40279],[-2.94851,53.4029],[-2.94695,53.40265],[-2.94687,53.40276],[-2.94845,53.40299],[-2.94851,53.40304],[-2.94849,53.40321],[-2.9461,53.40283],[-2.94534,53.40276],[-2.94441,53.40273],[-2.94354,53.4028],[-2.94072,53.40333],[-2.93967,53.40311],[-2.93974,53.403],[-2.94229,53.4023],[-2.9443,53.40194],[-2.94572,53.40175],[-2.94737,53.40163],[-2.94875,53.40165]]]}},{"type":"Feature","properties":{"source":"OSM landuse=railway","osm_id":300672634,"operator":null},"geometry":{"type":"Polygon","coordinates":[[[-2.93644,53.42646],[-2.93659,53.42644],[-2.93797,53.42883],[-2.93995,53.4324],[-2.93984,53.43246],[-2.93644,53.42646]]]}},{"type":"Feature","properties":{"source":"OSM landuse=railway","osm_id":300672655,"operator":null},"geometry":{"type":"Polygon","coordinates":[[[-2.93514,53.42381],[-2.93496,53.42384],[-2.93258,53.41964],[-2.93272,53.41962],[-2.93514,53.42381]]]}},{"type":"Feature","properties":{"source":"OSM landuse=railway","osm_id":300672656,"operator":null},"geometry":{"type":"Polygon","coordinates":[[[-2.93529,53.42412],[-2.93654,53.42632],[-2.93639,53.42637],[-2.93515,53.42416],[-2.93529,53.42412]]]}},{"type":"Feature","properties":{"source":"OSM landuse=railway","osm_id":300672665,"operator":null},"geometry":{"type":"Polygon","coordinates":[[[-2.94004,53.43255],[-2.94049,53.4333],[-2.94132,53.43444],[-2.9419,53.43507],[-2.94362,53.43647],[-2.94344,53.43651],[-2.94246,53.43574],[-2.94176,53.4351],[-2.94118,53.43448],[-2.94082,53.43406],[-2.94034,53.43334],[-2.93992,53.43261],[-2.94004,53.43255]]]}},{"type":"Feature","properties":{"source":"OSM landuse=railway","osm_id":300672669,"operator":null},"geometry":{"type":"Polygon","coordinates":[[[-2.94361,53.43661],[-2.94374,53.43654],[-2.94529,53.43748],[-2.94516,53.43754],[-2.94361,53.43661]]]}},{"type":"Feature","properties":{"source":"OSM landuse=railway","osm_id":300672678,"operator":null},"geometry":{"type":"Polygon","coordinates":[[[-2.92971,53.41454],[-2.92996,53.41452],[-2.93269,53.41949],[-2.93248,53.41953],[-2.92971,53.41454]]]}},{"type":"Feature","properties":{"source":"OSM landuse=railway","osm_id":300695842,"operator":null},"geometry":{"type":"Polygon","coordinates":[[[-2.94845,53.43895],[-2.94853,53.43887],[-2.9507,53.43962],[-2.95062,53.4397],[-2.94845,53.43895]]]}},{"type":"Feature","properties":{"source":"OSM landuse=railway","osm_id":300695844,"operator":null},"geometry":{"type":"Polygon","coordinates":[[[-2.94545,53.43755],[-2.94626,53.43797],[-2.94726,53.43841],[-2.94834,53.4388],[-2.94826,53.43888],[-2.94614,53.43805],[-2.94532,53.43763],[-2.94545,53.43755]]]}},{"type":"Feature","properties":{"source":"OSM landuse=railway","osm_id":300695856,"operator":null},"geometry":{"type":"Polygon","coordinates":[[[-2.9509,53.4397],[-2.95737,53.44191],[-2.95896,53.44237],[-2.96055,53.44268],[-2.96044,53.44277],[-2.96,53.44269],[-2.95891,53.44247],[-2.95744,53.44205],[-2.95476,53.44116],[-2.95083,53.43979],[-2.9509,53.4397]]]}},{"type":"Feature","properties":{"source":"OSM landuse=railway","osm_id":301348874,"operator":null},"geometry":{"type":"Polygon","coordinates":[[[-2.96483,53.44314],[-2.9678,53.44308],[-2.97061,53.44272],[-2.97057,53.44292],[-2.96792,53.44317],[-2.96477,53.44323],[-2.96483,53.44314]]]}},{"type":"Feature","properties":{"source":"OSM landuse=railway","osm_id":301348875,"operator":null},"geometry":{"type":"Polygon","coordinates":[[[-2.9709,53.44269],[-2.97223,53.44246],[-2.97231,53.44264],[-2.97087,53.44288],[-2.9709,53.44269]]]}},{"type":"Feature","properties":{"source":"OSM landuse=railway","osm_id":301348877,"operator":null},"geometry":{"type":"Polygon","coordinates":[[[-2.96091,53.44274],[-2.96284,53.44302],[-2.96461,53.44313],[-2.96453,53.44323],[-2.9628,53.4431],[-2.96086,53.44284],[-2.96091,53.44274]]]}},{"type":"Feature","properties":{"source":"OSM landuse=railway","osm_id":301348887,"operator":null},"geometry":{"type":"Polygon","coordinates":[[[-2.97949,53.44079],[-2.97958,53.44089],[-2.97852,53.44124],[-2.97678,53.44171],[-2.97671,53.44162],[-2.97949,53.44079]]]}},{"type":"Feature","properties":{"source":"OSM landuse=railway","osm_id":301461775,"operator":null},"geometry":{"type":"Polygon","coordinates":[[[-2.95241,53.46257],[-2.95233,53.46248],[-2.95674,53.46043],[-2.96214,53.45786],[-2.96216,53.458],[-2.95241,53.46257]]]}},{"type":"Feature","properties":{"source":"OSM landuse=railway","osm_id":301461778,"operator":null},"geometry":{"type":"Polygon","coordinates":[[[-2.96933,53.45271],[-2.96732,53.45474],[-2.96668,53.45546],[-2.96636,53.45596],[-2.96576,53.45728],[-2.96553,53.45733],[-2.96588,53.45651],[-2.96576,53.4565],[-2.9654,53.45736],[-2.96525,53.4574],[-2.96543,53.45696],[-2.9656,53.45633],[-2.96547,53.45629],[-2.96563,53.45614],[-2.96601,53.45619],[-2.96646,53.45547],[-2.96636,53.45544],[-2.96524,53.45635],[-2.96437,53.4569],[-2.96267,53.4578],[-2.96252,53.45773],[-2.96252,53.45769],[-2.9642,53.45685],[-2.96562,53.45594],[-2.9662,53.45543],[-2.97221,53.44963],[-2.97246,53.44973],[-2.96933,53.45271]]]}},{"type":"Feature","properties":{"source":"OSM landuse=railway","osm_id":301461782,"operator":null},"geometry":{"type":"Polygon","coordinates":[[[-2.95202,53.46262],[-2.9521,53.46273],[-2.9509,53.46322],[-2.94941,53.46372],[-2.94635,53.46454],[-2.94461,53.46519],[-2.94335,53.46582],[-2.94331,53.46573],[-2.94453,53.46512],[-2.94628,53.46447],[-2.94934,53.46363],[-2.95084,53.46315],[-2.95202,53.46262]]]}},{"type":"Feature","properties":{"source":"OSM landuse=railway","osm_id":301464554,"operator":null},"geometry":{"type":"Polygon","coordinates":[[[-2.9431,53.46583],[-2.94314,53.46592],[-2.93782,53.46858],[-2.9375,53.4686],[-2.9431,53.46583]]]}},{"type":"Feature","properties":{"source":"OSM landuse=railway","osm_id":310724703,"operator":null},"geometry":{"type":"Polygon","coordinates":[[[-2.97676,53.38419],[-2.97521,53.38273],[-2.97514,53.38275],[-2.97453,53.38232],[-2.97469,53.38223],[-2.97389,53.38173],[-2.97324,53.3814],[-2.97261,53.38115],[-2.97138,53.38083],[-2.97089,53.38054],[-2.97099,53.38047],[-2.97322,53.38124],[-2.97416,53.38171],[-2.97505,53.38226],[-2.97584,53.38288],[-2.97593,53.38285],[-2.97691,53.3839],[-2.97676,53.38419]]]}},{"type":"Feature","properties":{"source":"OSM landuse=railway","osm_id":310724704,"operator":null},"geometry":{"type":"Polygon","coordinates":[[[-2.97685,53.38589],[-2.97655,53.38594],[-2.97662,53.38441],[-2.97687,53.3847],[-2.97692,53.38483],[-2.97685,53.38589]]]}},{"type":"Feature","properties":{"source":"OSM landuse=railway","osm_id":310884193,"operator":null},"geometry":{"type":"Polygon","coordinates":[[[-2.95493,53.37644],[-2.95475,53.37659],[-2.9527,53.37573],[-2.95292,53.37554],[-2.9535,53.37579],[-2.9535,53.37583],[-2.95493,53.37644]]]}},{"type":"Feature","properties":{"source":"OSM landuse=railway","osm_id":310884194,"operator":null},"geometry":{"type":"Polygon","coordinates":[[[-2.95762,53.37732],[-2.95755,53.3774],[-2.95709,53.37728],[-2.95491,53.37659],[-2.95505,53.37648],[-2.95762,53.37732]]]}},{"type":"Feature","properties":{"source":"OSM landuse=railway","osm_id":310884198,"operator":null},"geometry":{"type":"Polygon","coordinates":[[[-2.93805,53.36929],[-2.93669,53.36884],[-2.93445,53.3682],[-2.93255,53.36746],[-2.93135,53.36688],[-2.92955,53.36587],[-2.92836,53.36529],[-2.92731,53.36484],[-2.92549,53.36419],[-2.92552,53.36416],[-2.92326,53.3634],[-2.92144,53.36268],[-2.92051,53.36225],[-2.91813,53.36099],[-2.91653,53.3603],[-2.91662,53.36023],[-2.91822,53.36092],[-2.92062,53.36216],[-2.92215,53.36289],[-2.92421,53.36366],[-2.92556,53.36411],[-2.92561,53.36406],[-2.92731,53.36467],[-2.92739,53.36478],[-2.92907,53.36553],[-2.93144,53.36683],[-2.93259,53.36738],[-2.93441,53.36808],[-2.93795,53.36914],[-2.94007,53.36994],[-2.93997,53.37002],[-2.93805,53.36929]]]}},{"type":"Feature","properties":{"source":"OSM landuse=railway","osm_id":310884202,"operator":null},"geometry":{"type":"Polygon","coordinates":[[[-2.95172,53.37519],[-2.94741,53.37328],[-2.94382,53.37169],[-2.94393,53.37158],[-2.9475,53.37322],[-2.95179,53.37511],[-2.95172,53.37519]]]}},{"type":"Feature","properties":{"source":"OSM landuse=railway","osm_id":310884205,"operator":null},"geometry":{"type":"Polygon","coordinates":[[[-2.9437,53.37162],[-2.94227,53.37102],[-2.94236,53.37094],[-2.94379,53.37155],[-2.9437,53.37162]]]}},{"type":"Feature","properties":{"source":"OSM landuse=railway","osm_id":310886724,"operator":null},"geometry":{"type":"Polygon","coordinates":[[[-2.86441,53.35357],[-2.85256,53.35393],[-2.85238,53.35368],[-2.85527,53.35362],[-2.86448,53.35329],[-2.86441,53.35357]]]}},{"type":"Feature","properties":{"source":"OSM landuse=railway","osm_id":310886755,"operator":null},"geometry":{"type":"Polygon","coordinates":[[[-2.88497,53.35794],[-2.88414,53.35796],[-2.8833,53.35807],[-2.88127,53.3582],[-2.87833,53.35797],[-2.87676,53.3579],[-2.87518,53.35805],[-2.86561,53.35945],[-2.86526,53.35914],[-2.87163,53.35817],[-2.87893,53.35712],[-2.88073,53.35695],[-2.88346,53.3568],[-2.8863,53.35685],[-2.88343,53.35511],[-2.88225,53.35456],[-2.88092,53.35406],[-2.87959,53.35371],[-2.87811,53.35344],[-2.87716,53.35337],[-2.8745,53.35332],[-2.86921,53.35343],[-2.86466,53.35362],[-2.86475,53.35335],[-2.86742,53.35319],[-2.86755,53.35324],[-2.8692,53.35312],[-2.86958,53.35302],[-2.86959,53.35311],[-2.87095,53.35308],[-2.87374,53.35295],[-2.87915,53.35285],[-2.87941,53.3528],[-2.87978,53.35287],[-2.88647,53.35281],[-2.88662,53.35277],[-2.88663,53.35273],[-2.8887,53.35271],[-2.88989,53.35265],[-2.89028,53.35283],[-2.88792,53.3529],[-2.88603,53.35305],[-2.88454,53.3531],[-2.88455,53.35314],[-2.88098,53.35316],[-2.87933,53.35302],[-2.87566,53.35309],[-2.87819,53.35326],[-2.87966,53.35353],[-2.88113,53.35389],[-2.88315,53.35471],[-2.88516,53.35581],[-2.88568,53.35618],[-2.88582,53.3561],[-2.88718,53.35689],[-2.89032,53.35691],[-2.89252,53.35697],[-2.89247,53.3573],[-2.89176,53.35728],[-2.89161,53.35722],[-2.8915,53.35726],[-2.89038,53.35729],[-2.88996,53.35721],[-2.88764,53.3571],[-2.88755,53.35719],[-2.88969,53.35845],[-2.89028,53.35875],[-2.88992,53.35906],[-2.88779,53.35786],[-2.88703,53.3583],[-2.88773,53.35874],[-2.88748,53.35886],[-2.88607,53.35814],[-2.88554,53.35798],[-2.88497,53.35794]]]}},{"type":"Feature","properties":{"source":"OSM landuse=railway","osm_id":311020552,"operator":null},"geometry":{"type":"Polygon","coordinates":[[[-2.96558,53.45756],[-2.96516,53.45829],[-2.9634,53.46098],[-2.96343,53.46101],[-2.96291,53.46187],[-2.96319,53.46197],[-2.96262,53.46225],[-2.96248,53.46221],[-2.96253,53.46207],[-2.96247,53.46206],[-2.96287,53.4615],[-2.96291,53.46151],[-2.96541,53.4576],[-2.96558,53.45756]]]}},{"type":"Feature","properties":{"source":"OSM landuse=railway","osm_id":313071302,"operator":null},"geometry":{"type":"Polygon","coordinates":[[[-2.9624,53.46231],[-2.96253,53.46237],[-2.96089,53.46491],[-2.96074,53.46488],[-2.9624,53.46231]]]}},{"type":"Feature","properties":{"source":"OSM landuse=railway","osm_id":313071303,"operator":null},"geometry":{"type":"Polygon","coordinates":[[[-2.96072,53.46497],[-2.96083,53.465],[-2.95839,53.46882],[-2.95825,53.46879],[-2.96072,53.46497]]]}},{"type":"Feature","properties":{"source":"OSM landuse=railway","osm_id":361489100,"operator":null},"geometry":{"type":"Polygon","coordinates":[[[-2.919,53.38317],[-2.91871,53.38333],[-2.91527,53.37934],[-2.91561,53.37917],[-2.91583,53.37953],[-2.91704,53.38098],[-2.91781,53.38189],[-2.919,53.38317]]]}},{"type":"Feature","properties":{"source":"OSM landuse=railway","osm_id":401774657,"operator":null},"geometry":{"type":"Polygon","coordinates":[[[-2.89656,53.40626],[-2.89487,53.4064],[-2.8943,53.40651],[-2.89426,53.40646],[-2.89341,53.40656],[-2.89343,53.40663],[-2.89257,53.40666],[-2.89115,53.40682],[-2.89111,53.40666],[-2.89463,53.40629],[-2.89616,53.40618],[-2.89656,53.40626]]]}},{"type":"Feature","properties":{"source":"OSM landuse=railway","osm_id":572691327,"operator":null},"geometry":{"type":"Polygon","coordinates":[[[-2.91352,53.40553],[-2.91376,53.40552],[-2.91386,53.40571],[-2.90865,53.40578],[-2.90865,53.40573],[-2.90853,53.40573],[-2.90854,53.40578],[-2.90587,53.4058],[-2.90126,53.40593],[-2.90106,53.40574],[-2.90853,53.40553],[-2.90853,53.40558],[-2.90865,53.40558],[-2.90865,53.40553],[-2.91339,53.40545],[-2.91352,53.40553]]]}},{"type":"Feature","properties":{"source":"OSM landuse=railway","osm_id":806161404,"operator":"Stadler"},"geometry":{"type":"Polygon","coordinates":[[[-2.98128,53.44097],[-2.98186,53.44044],[-2.9817,53.44038],[-2.98195,53.44014],[-2.98193,53.44007],[-2.98576,53.43628],[-2.98607,53.43602],[-2.98656,53.43747],[-2.98622,53.43757],[-2.98633,53.43781],[-2.98638,53.43809],[-2.98629,53.43819],[-2.98576,53.43839],[-2.98583,53.43845],[-2.98506,53.43874],[-2.985,53.43868],[-2.98418,53.43899],[-2.98313,53.43975],[-2.983,53.43988],[-2.98305,53.43994],[-2.98282,53.43998],[-2.98188,53.44084],[-2.98128,53.44097]]]}},{"type":"Feature","properties":{"source":"OSM landuse=railway","osm_id":841503699,"operator":null},"geometry":{"type":"Polygon","coordinates":[[[-2.86677,53.35332],[-2.86679,53.35349],[-2.86177,53.35362],[-2.86176,53.35348],[-2.86677,53.35332]]]}},{"type":"Feature","properties":{"source":"OSM landuse=railway","osm_id":851798956,"operator":null},"geometry":{"type":"Polygon","coordinates":[[[-2.9278,53.39618],[-2.92675,53.39452],[-2.92685,53.3945],[-2.92701,53.39476],[-2.92672,53.39411],[-2.92678,53.3941],[-2.92692,53.39432],[-2.9272,53.39507],[-2.92789,53.39616],[-2.9278,53.39618]]]}},{"type":"Feature","properties":{"source":"OSM landuse=railway","osm_id":851871847,"operator":null},"geometry":{"type":"Polygon","coordinates":[[[-2.96911,53.45278],[-2.96923,53.45281],[-2.96791,53.45416],[-2.96779,53.45412],[-2.96804,53.45386],[-2.96773,53.45413],[-2.96765,53.4541],[-2.96911,53.45278]]]}},{"type":"Feature","properties":{"source":"OSM landuse=railway","osm_id":886510908,"operator":null},"geometry":{"type":"Polygon","coordinates":[[[-2.96887,53.44684],[-2.96875,53.44675],[-2.97032,53.446],[-2.97044,53.44609],[-2.96887,53.44684]]]}},{"type":"Feature","properties":{"source":"OSM landuse=railway","osm_id":887312616,"operator":null},"geometry":{"type":"Polygon","coordinates":[[[-2.97627,53.40154],[-2.97645,53.40151],[-2.97644,53.40157],[-2.97628,53.40159],[-2.97627,53.40154]]]}},{"type":"Feature","properties":{"source":"OSM landuse=railway","osm_id":956252045,"operator":null},"geometry":{"type":"Polygon","coordinates":[[[-2.98247,53.39799],[-2.98221,53.39812],[-2.98217,53.39805],[-2.98242,53.39795],[-2.98247,53.39799]]]}},{"type":"Feature","properties":{"source":"OSM landuse=railway","osm_id":956252053,"operator":null},"geometry":{"type":"Polygon","coordinates":[[[-2.95434,53.40129],[-2.95433,53.40099],[-2.95533,53.40091],[-2.95548,53.40125],[-2.95434,53.40129]]]}},{"type":"Feature","properties":{"source":"OSM landuse=railway","osm_id":1444330450,"operator":null},"geometry":{"type":"Polygon","coordinates":[[[-2.82544,53.35468],[-2.82555,53.35448],[-2.82572,53.35447],[-2.84046,53.35405],[-2.84183,53.35396],[-2.84824,53.35376],[-2.85194,53.35357],[-2.85205,53.35357],[-2.85234,53.35393],[-2.82732,53.35468],[-2.82544,53.35468]]]}}]}