{"type":"FeatureCollection","_about":"National Highways RedLine boundary near Liverpool (\u00a9 Crown copyright 2026, OS AC0000827444; indicative only, licence custom).","features":[{"type":"Feature","properties":{"source":"National Highways Operational Highway Boundary (RedLine), indicative only"},"geometry":{"type":"Polygon","coordinates":[[[-2.89967,53.47285],[-2.89994,53.47304],[-2.90004,53.47315],[-2.90003,53.47316],[-2.89967,53.47285]]]}},{"type":"Feature","properties":{"source":"National Highways Operational Highway Boundary (RedLine), indicative only"},"geometry":{"type":"Polygon","coordinates":[[[-2.88895,53.46373],[-2.88842,53.46377],[-2.88834,53.46369],[-2.88885,53.46365],[-2.88895,53.46373]]]}},{"type":"Feature","properties":{"source":"National Highways Operational Highway Boundary (RedLine), indicative only"},"geometry":{"type":"Polygon","coordinates":[[[-2.88158,53.46434],[-2.88167,53.46433],[-2.88168,53.46436],[-2.88161,53.46436],[-2.88158,53.46434]]]}},{"type":"Feature","properties":{"source":"National Highways Operational Highway Boundary (RedLine), indicative only"},"geometry":{"type":"Polygon","coordinates":[[[-2.89996,53.4735],[-2.90006,53.47341],[-2.90012,53.47318],[-2.90007,53.47355],[-2.89996,53.4735]]]}},{"type":"Feature","properties":{"source":"National Highways Operational Highway Boundary (RedLine), indicative only"},"geometry":{"type":"Polygon","coordinates":[[[-2.88414,53.46412],[-2.88247,53.46426],[-2.88182,53.46438],[-2.88168,53.46438],[-2.88161,53.46436],[-2.88167,53.46433],[-2.88153,53.4643],[-2.88246,53.46417],[-2.88399,53.46404],[-2.88414,53.46412]]]}},{"type":"Feature","properties":{"source":"National Highways Operational Highway Boundary (RedLine), indicative only"},"geometry":{"type":"Polygon","coordinates":[[[-2.85962,53.44581],[-2.85964,53.44561],[-2.85928,53.44497],[-2.85864,53.44358],[-2.85794,53.44175],[-2.8579,53.44175],[-2.85793,53.44171],[-2.85766,53.44104],[-2.85747,53.44084],[-2.85751,53.44065],[-2.85747,53.44058],[-2.8567,53.43928],[-2.85616,53.43853],[-2.85553,53.43778],[-2.85422,53.43674],[-2.8538,53.43634],[-2.8535,53.43579],[-2.85344,53.43511],[-2.853,53.43472],[-2.85219,53.43407],[-2.8518,53.43404],[-2.85181,53.43391],[-2.85164,53.43372],[-2.85086,53.43322],[-2.85034,53.43292],[-2.84886,53.43223],[-2.84764,53.43184],[-2.84578,53.4314],[-2.84411,53.43111],[-2.84136,53.43079],[-2.84124,53.43081],[-2.84086,53.43074],[-2.8371,53.43047],[-2.83448,53.43042],[-2.83445,53.43035],[-2.83118,53.4305],[-2.82932,53.43051],[-2.82768,53.43037],[-2.8254,53.43003],[-2.82357,53.42969],[-2.82254,53.42967],[-2.82128,53.42985],[-2.82069,53.42985],[-2.8201,53.4297],[-2.81974,53.42949],[-2.81962,53.42932],[-2.81959,53.42909],[-2.81962,53.42908],[-2.81943,53.42894],[-2.81907,53.42886],[-2.81923,53.42882],[-2.81951,53.42891],[-2.8196,53.42885],[-2.81991,53.42879],[-2.82004,53.42888],[-2.82049,53.42836],[-2.82076,53.42821],[-2.81952,53.42747],[-2.81886,53.42699],[-2.81824,53.42637],[-2.81826,53.42632],[-2.81807,53.42609],[-2.81739,53.42539],[-2.81725,53.42513],[-2.81623,53.42421],[-2.81534,53.42319],[-2.81456,53.42203],[-2.81432,53.42135],[-2.81424,53.42131],[-2.81391,53.42055],[-2.81374,53.42002],[-2.81341,53.41946],[-2.81323,53.41897],[-2.81318,53.4184],[-2.81301,53.41786],[-2.8131,53.41785],[-2.81299,53.41739],[-2.81286,53.41723],[-2.81263,53.41573],[-2.81263,53.41536],[-2.81271,53.41485],[-2.81271,53.41387],[-2.81264,53.41366],[-2.81279,53.41338],[-2.81296,53.41247],[-2.8131,53.41232],[-2.81313,53.41195],[-2.81345,53.41046],[-2.81351,53.40989],[-2.81347,53.4086],[-2.81326,53.40698],[-2.81335,53.40693],[-2.81345,53.40696],[-2.81344,53.40686],[-2.81322,53.4068],[-2.81315,53.40673],[-2.813,53.40625],[-2.81298,53.40615],[-2.81325,53.4061],[-2.81323,53.40602],[-2.81298,53.40607],[-2.81288,53.40575],[-2.81392,53.40565],[-2.81397,53.40588],[-2.81372,53.40593],[-2.81374,53.40601],[-2.81401,53.40598],[-2.81419,53.40648],[-2.81421,53.40668],[-2.81424,53.40667],[-2.81428,53.40698],[-2.81423,53.40705],[-2.81398,53.40701],[-2.814,53.4071],[-2.81427,53.4072],[-2.81419,53.40798],[-2.81423,53.40854],[-2.81438,53.40882],[-2.81439,53.40912],[-2.81432,53.40965],[-2.81395,53.41141],[-2.81383,53.41188],[-2.81367,53.41213],[-2.81363,53.41236],[-2.8137,53.41241],[-2.81353,53.41334],[-2.81363,53.41346],[-2.81359,53.41347],[-2.81362,53.41358],[-2.81347,53.41377],[-2.81337,53.41457],[-2.81352,53.41596],[-2.81348,53.41717],[-2.81356,53.41726],[-2.81372,53.41779],[-2.81382,53.41836],[-2.81418,53.41913],[-2.81439,53.41992],[-2.81639,53.42303],[-2.81756,53.42464],[-2.81796,53.42487],[-2.81877,53.42555],[-2.81875,53.42557],[-2.81885,53.42567],[-2.8189,53.42562],[-2.81998,53.42636],[-2.82021,53.42658],[-2.82057,53.42679],[-2.82096,53.42714],[-2.82172,53.42768],[-2.82294,53.42823],[-2.82353,53.42842],[-2.82391,53.42848],[-2.82434,53.42844],[-2.82478,53.42825],[-2.825,53.42803],[-2.82494,53.42785],[-2.825,53.42783],[-2.82512,53.42792],[-2.82504,53.42781],[-2.82555,53.42782],[-2.82562,53.42787],[-2.8255,53.42796],[-2.82558,53.428],[-2.82551,53.42808],[-2.82551,53.42841],[-2.82556,53.42858],[-2.8257,53.42878],[-2.82604,53.42907],[-2.82638,53.42927],[-2.82727,53.42957],[-2.82816,53.42974],[-2.83165,53.42999],[-2.83268,53.43003],[-2.83433,53.42997],[-2.83823,53.42996],[-2.84103,53.43015],[-2.84116,53.43012],[-2.84116,53.4302],[-2.84127,53.4302],[-2.84128,53.43014],[-2.84135,53.43019],[-2.84484,53.43069],[-2.84621,53.43098],[-2.84737,53.43128],[-2.84927,53.43192],[-2.85006,53.43225],[-2.85091,53.43264],[-2.85149,53.433],[-2.8518,53.43312],[-2.85178,53.43302],[-2.85199,53.43316],[-2.85212,53.43339],[-2.85265,53.43373],[-2.85373,53.43456],[-2.85399,53.43434],[-2.85524,53.43349],[-2.85558,53.43312],[-2.85584,53.43273],[-2.85595,53.43246],[-2.85606,53.43201],[-2.85599,53.43132],[-2.85616,53.43136],[-2.85615,53.43129],[-2.85596,53.43118],[-2.85566,53.42996],[-2.85558,53.4299],[-2.85566,53.42986],[-2.85553,53.42983],[-2.85616,53.42965],[-2.85674,53.43126],[-2.85679,53.4315],[-2.8566,53.43147],[-2.8566,53.43151],[-2.85679,53.43156],[-2.85678,53.43209],[-2.85665,53.43252],[-2.85638,53.43308],[-2.8552,53.43453],[-2.85508,53.4351],[-2.8553,53.4357],[-2.85546,53.43602],[-2.85698,53.43822],[-2.85765,53.43942],[-2.85828,53.44077],[-2.85847,53.44092],[-2.85845,53.44111],[-2.85917,53.44313],[-2.85969,53.44429],[-2.86028,53.44545],[-2.86046,53.44558],[-2.86042,53.44577],[-2.86162,53.44762],[-2.86234,53.44862],[-2.86315,53.4496],[-2.86488,53.45146],[-2.86625,53.45274],[-2.86907,53.45502],[-2.87127,53.45666],[-2.87071,53.45694],[-2.86844,53.45528],[-2.86672,53.45388],[-2.86576,53.45302],[-2.86384,53.45118],[-2.86254,53.44974],[-2.86119,53.44803],[-2.85983,53.44594],[-2.85962,53.44581]],[[-2.85966,53.4458],[-2.85962,53.44581],[-2.85972,53.44579],[-2.85966,53.4458]]]}},{"type":"Feature","properties":{"source":"National Highways Operational Highway Boundary (RedLine), indicative only"},"geometry":{"type":"Polygon","coordinates":[[[-2.88414,53.46412],[-2.88399,53.46404],[-2.88834,53.46369],[-2.88842,53.46377],[-2.88414,53.46412]]]}},{"type":"Feature","properties":{"source":"National Highways Operational Highway Boundary (RedLine), indicative only"},"geometry":{"type":"Polygon","coordinates":[[[-2.88134,53.46432],[-2.88065,53.46428],[-2.87783,53.46452],[-2.88026,53.46428],[-2.88116,53.46425],[-2.88134,53.46432]]]}},{"type":"Feature","properties":{"source":"National Highways Operational Highway Boundary (RedLine), indicative only"},"geometry":{"type":"Polygon","coordinates":[[[-2.88898,53.46373],[-2.88885,53.46365],[-2.89192,53.46339],[-2.89131,53.46353],[-2.88898,53.46373]]]}},{"type":"Feature","properties":{"source":"National Highways Operational Highway Boundary (RedLine), indicative only"},"geometry":{"type":"Polygon","coordinates":[[[-2.88123,53.46432],[-2.8813,53.46436],[-2.88095,53.46435],[-2.88123,53.46432]]]}},{"type":"Feature","properties":{"source":"National Highways Operational Highway Boundary (RedLine), indicative only"},"geometry":{"type":"Polygon","coordinates":[[[-2.88068,53.46435],[-2.88161,53.46436],[-2.87852,53.46457],[-2.87799,53.46471],[-2.87789,53.46464],[-2.87837,53.4645],[-2.88068,53.46435]]]}},{"type":"Feature","properties":{"source":"National Highways Operational Highway Boundary (RedLine), indicative only"},"geometry":{"type":"Polygon","coordinates":[[[-2.88399,53.46404],[-2.88142,53.46431],[-2.88117,53.46427],[-2.88084,53.46412],[-2.88112,53.4641],[-2.88094,53.46402],[-2.88099,53.46401],[-2.88089,53.46393],[-2.88214,53.46383],[-2.87921,53.46247],[-2.87889,53.46242],[-2.87845,53.46255],[-2.87852,53.46243],[-2.87884,53.46229],[-2.87919,53.46203],[-2.87665,53.46062],[-2.87639,53.46076],[-2.87612,53.46101],[-2.87599,53.4614],[-2.8759,53.4615],[-2.87573,53.46161],[-2.87547,53.46168],[-2.8724,53.46147],[-2.87116,53.46125],[-2.87111,53.46118],[-2.87236,53.46138],[-2.87543,53.46163],[-2.87573,53.46154],[-2.87587,53.46144],[-2.87604,53.46103],[-2.87608,53.46073],[-2.87587,53.46054],[-2.87363,53.45906],[-2.87231,53.45811],[-2.87242,53.45803],[-2.87237,53.458],[-2.87218,53.45807],[-2.8718,53.45771],[-2.87071,53.45694],[-2.87127,53.45666],[-2.87282,53.45767],[-2.87284,53.45775],[-2.87276,53.4578],[-2.8728,53.45783],[-2.87298,53.45775],[-2.87725,53.46022],[-2.87984,53.46034],[-2.88093,53.46034],[-2.88115,53.4603],[-2.88113,53.46036],[-2.88072,53.46039],[-2.87761,53.46031],[-2.87698,53.46048],[-2.8794,53.46182],[-2.87968,53.46142],[-2.87979,53.46163],[-2.87989,53.4616],[-2.88162,53.46263],[-2.88365,53.46364],[-2.88329,53.4637],[-2.88336,53.46373],[-2.88411,53.46361],[-2.8842,53.46364],[-2.88574,53.46318],[-2.88664,53.46306],[-2.88712,53.46308],[-2.8876,53.46318],[-2.88811,53.46337],[-2.88851,53.46364],[-2.8888,53.46362],[-2.88885,53.46365],[-2.88834,53.46369],[-2.88802,53.46347],[-2.88766,53.46332],[-2.88751,53.46339],[-2.88372,53.46378],[-2.88377,53.4638],[-2.88373,53.46389],[-2.88368,53.46389],[-2.88399,53.46404]],[[-2.88231,53.46411],[-2.88263,53.46409],[-2.8832,53.46404],[-2.88304,53.46397],[-2.88281,53.46399],[-2.88229,53.46403],[-2.88231,53.46411]]]}},{"type":"Feature","properties":{"source":"National Highways Operational Highway Boundary (RedLine), indicative only"},"geometry":{"type":"Polygon","coordinates":[[[-2.88766,53.46332],[-2.888,53.46346],[-2.88371,53.46379],[-2.88425,53.4637],[-2.88751,53.46339],[-2.88766,53.46332]]]}},{"type":"Feature","properties":{"source":"National Highways Operational Highway Boundary (RedLine), indicative only"},"geometry":{"type":"Polygon","coordinates":[[[-2.88158,53.46434],[-2.8813,53.46436],[-2.88123,53.46432],[-2.88153,53.4643],[-2.88158,53.46434]]]}},{"type":"Feature","properties":{"source":"National Highways Operational Highway Boundary (RedLine), indicative only"},"geometry":{"type":"Polygon","coordinates":[[[-2.90004,53.47326],[-2.90004,53.4733],[-2.90001,53.47339],[-2.89999,53.47341],[-2.90004,53.47326]]]}},{"type":"Feature","properties":{"source":"National Highways Operational Highway Boundary (RedLine), indicative only"},"geometry":{"type":"Polygon","coordinates":[[[-2.90259,53.47353],[-2.90268,53.47319],[-2.90285,53.47304],[-2.90468,53.47259],[-2.9047,53.47262],[-2.90308,53.47301],[-2.9029,53.4731],[-2.90277,53.47323],[-2.90269,53.47343],[-2.90271,53.47362],[-2.90352,53.4743],[-2.90347,53.47434],[-2.90281,53.47379],[-2.90271,53.47376],[-2.90259,53.47353]]]}},{"type":"Feature","properties":{"source":"National Highways Operational Highway Boundary (RedLine), indicative only"},"geometry":{"type":"MultiPolygon","coordinates":[[[[-2.93347,53.48672],[-2.93347,53.48672],[-2.93347,53.48672],[-2.93347,53.48672]]],[[[-2.93347,53.48672],[-2.93347,53.48672],[-2.93347,53.48672],[-2.93347,53.48672]]],[[[-2.93347,53.48672],[-2.93077,53.48605],[-2.92783,53.48549],[-2.92705,53.48529],[-2.92695,53.48532],[-2.9263,53.4852],[-2.92225,53.48486],[-2.91969,53.48446],[-2.91805,53.48408],[-2.91653,53.48359],[-2.91653,53.48351],[-2.91617,53.4834],[-2.91603,53.48351],[-2.91575,53.48338],[-2.9156,53.48351],[-2.91584,53.48361],[-2.91593,53.48352],[-2.916,53.48354],[-2.916,53.48362],[-2.91592,53.48373],[-2.91566,53.48365],[-2.91541,53.48333],[-2.91442,53.48293],[-2.91405,53.48288],[-2.9141,53.4828],[-2.91405,53.48279],[-2.91398,53.48284],[-2.91382,53.48279],[-2.91358,53.48283],[-2.91391,53.48261],[-2.91381,53.4826],[-2.91305,53.48224],[-2.91291,53.48233],[-2.91286,53.48229],[-2.91305,53.48218],[-2.91106,53.48113],[-2.90942,53.48002],[-2.90683,53.47778],[-2.90549,53.47674],[-2.90547,53.47589],[-2.90561,53.47606],[-2.90918,53.47926],[-2.91075,53.48043],[-2.91153,53.48091],[-2.91322,53.48179],[-2.91348,53.48192],[-2.91359,53.48185],[-2.91365,53.48189],[-2.91355,53.48194],[-2.91439,53.48236],[-2.91644,53.48306],[-2.91644,53.48313],[-2.91856,53.48371],[-2.92027,53.48407],[-2.92254,53.48439],[-2.92428,53.48458],[-2.92455,53.48448],[-2.92594,53.48468],[-2.92635,53.48479],[-2.92725,53.48492],[-2.9273,53.48498],[-2.92749,53.48501],[-2.92762,53.48497],[-2.92846,53.48513],[-2.9315,53.48579],[-2.93296,53.48619],[-2.93298,53.48624],[-2.93343,53.48637],[-2.93347,53.48632],[-2.93379,53.48641],[-2.93618,53.48719],[-2.94182,53.48932],[-2.94136,53.48963],[-2.9377,53.48822],[-2.93496,53.48723],[-2.93502,53.48725],[-2.93386,53.48659],[-2.93347,53.48672]]]]}},{"type":"Feature","properties":{"source":"National Highways Operational Highway Boundary (RedLine), indicative only"},"geometry":{"type":"Polygon","coordinates":[[[-2.87927,53.46176],[-2.87789,53.461],[-2.87709,53.46054],[-2.87728,53.46048],[-2.8775,53.46055],[-2.87852,53.46059],[-2.87901,53.46076],[-2.87927,53.46101],[-2.87934,53.4612],[-2.87927,53.46176]]]}},{"type":"Feature","properties":{"source":"National Highways Operational Highway Boundary (RedLine), indicative only"},"geometry":{"type":"Polygon","coordinates":[[[-2.90549,53.47674],[-2.90402,53.4757],[-2.90186,53.47428],[-2.9019,53.47425],[-2.90163,53.47412],[-2.90134,53.47405],[-2.90181,53.47389],[-2.90169,53.47381],[-2.90154,53.47385],[-2.90143,53.47382],[-2.90104,53.47351],[-2.90057,53.47323],[-2.90056,53.47316],[-2.90065,53.4731],[-2.90053,53.47302],[-2.90023,53.47317],[-2.90013,53.4733],[-2.90009,53.47311],[-2.90002,53.47313],[-2.89956,53.47278],[-2.89952,53.4727],[-2.89924,53.47258],[-2.89649,53.47063],[-2.89492,53.46968],[-2.89303,53.46865],[-2.88975,53.46705],[-2.88776,53.46625],[-2.88746,53.46627],[-2.88698,53.46609],[-2.88692,53.46599],[-2.88675,53.46588],[-2.88321,53.46449],[-2.8825,53.46431],[-2.88191,53.46436],[-2.88247,53.46426],[-2.88456,53.46408],[-2.88876,53.46607],[-2.88854,53.46581],[-2.88838,53.46543],[-2.88835,53.46519],[-2.88838,53.46436],[-2.88823,53.46385],[-2.88848,53.46384],[-2.88842,53.46377],[-2.88895,53.46373],[-2.8896,53.4641],[-2.89005,53.46425],[-2.89036,53.46429],[-2.89047,53.46442],[-2.89006,53.46439],[-2.88959,53.46428],[-2.88913,53.46408],[-2.88917,53.46441],[-2.88911,53.46508],[-2.88913,53.46578],[-2.8895,53.46621],[-2.89033,53.46671],[-2.89191,53.46755],[-2.89202,53.46757],[-2.89206,53.46763],[-2.89534,53.46937],[-2.89546,53.4694],[-2.89633,53.46991],[-2.89872,53.4711],[-2.90088,53.47239],[-2.90164,53.47259],[-2.90269,53.47275],[-2.90286,53.47275],[-2.90344,53.47253],[-2.90283,53.47277],[-2.90132,53.47258],[-2.90122,53.47262],[-2.90147,53.47268],[-2.90097,53.47285],[-2.90108,53.47292],[-2.90132,53.4729],[-2.90174,53.47322],[-2.90221,53.47352],[-2.90223,53.47358],[-2.90213,53.47365],[-2.90225,53.47373],[-2.90259,53.47353],[-2.90265,53.47368],[-2.90277,53.47381],[-2.90281,53.47379],[-2.90347,53.47434],[-2.90352,53.4743],[-2.90416,53.47483],[-2.90452,53.47502],[-2.90547,53.47589],[-2.90549,53.47674]]]}},{"type":"Feature","properties":{"source":"National Highways Operational Highway Boundary (RedLine), indicative only"},"geometry":{"type":"Polygon","coordinates":[[[-2.88665,53.46205],[-2.88848,53.46338],[-2.88818,53.4634],[-2.88775,53.46322],[-2.88721,53.4631],[-2.88678,53.46305],[-2.88636,53.46308],[-2.88562,53.46321],[-2.8843,53.46358],[-2.88432,53.46362],[-2.88424,53.46363],[-2.88411,53.46361],[-2.88336,53.46373],[-2.88329,53.4637],[-2.88418,53.46356],[-2.88617,53.46297],[-2.88691,53.46291],[-2.88779,53.46305],[-2.88708,53.46244],[-2.88648,53.46201],[-2.8858,53.46165],[-2.88499,53.46131],[-2.8841,53.46103],[-2.88321,53.46083],[-2.88229,53.4607],[-2.88096,53.4606],[-2.88201,53.46063],[-2.88303,53.46076],[-2.88407,53.46099],[-2.88503,53.46128],[-2.88583,53.46161],[-2.88665,53.46205]]]}},{"type":"Feature","properties":{"source":"National Highways Operational Highway Boundary (RedLine), indicative only"},"geometry":{"type":"Polygon","coordinates":[[[-2.88368,53.46389],[-2.88588,53.46371],[-2.88609,53.46371],[-2.88368,53.46389]]]}},{"type":"Feature","properties":{"source":"National Highways Operational Highway Boundary (RedLine), indicative only"},"geometry":{"type":"Polygon","coordinates":[[[-2.90166,53.47257],[-2.90167,53.47259],[-2.90101,53.47242],[-2.90166,53.47257]]]}}]}