{"type":"FeatureCollection","features":[{"type":"Feature","properties":{"ward":"Aigburth"},"geometry":{"type":"Polygon","coordinates":[[[-2.93164,53.37562],[-2.92909,53.37367],[-2.92181,53.36966],[-2.92277,53.3688],[-2.92226,53.36838],[-2.9238,53.36725],[-2.92428,53.36744],[-2.92465,53.36714],[-2.91685,53.36368],[-2.9168,53.36343],[-2.92401,53.3584],[-2.92237,53.35729],[-2.92243,53.35725],[-2.92365,53.35737],[-2.93014,53.3606],[-2.94236,53.36576],[-2.94203,53.36597],[-2.94094,53.36624],[-2.9405,53.36678],[-2.9408,53.36697],[-2.93536,53.37143],[-2.9343,53.37309],[-2.93515,53.37372],[-2.93298,53.37591],[-2.93164,53.37562]]]}},{"type":"Feature","properties":{"ward":"Allerton"},"geometry":{"type":"Polygon","coordinates":[[[-2.88994,53.37781],[-2.88733,53.37527],[-2.88098,53.37594],[-2.88054,53.37624],[-2.87481,53.3719],[-2.88483,53.37019],[-2.89032,53.36828],[-2.89311,53.36678],[-2.89876,53.37273],[-2.90119,53.37146],[-2.90783,53.3698],[-2.91207,53.37399],[-2.91538,53.37922],[-2.90797,53.38286],[-2.90785,53.38324],[-2.90649,53.3836],[-2.90457,53.38364],[-2.90468,53.38415],[-2.90375,53.38439],[-2.90279,53.38247],[-2.90503,53.38147],[-2.90104,53.3798],[-2.90058,53.38013],[-2.89997,53.37996],[-2.89949,53.3797],[-2.89997,53.3793],[-2.89615,53.37784],[-2.89418,53.37623],[-2.89353,53.37672],[-2.88994,53.37781]]]}},{"type":"Feature","properties":{"ward":"Anfield"},"geometry":{"type":"Polygon","coordinates":[[[-2.95781,53.4421],[-2.9468,53.43825],[-2.9443,53.43696],[-2.94203,53.43525],[-2.93995,53.43252],[-2.94554,53.42962],[-2.94957,53.42828],[-2.95234,53.42605],[-2.95454,53.42464],[-2.95696,53.42633],[-2.95993,53.42948],[-2.9659,53.43078],[-2.97147,53.43139],[-2.9692,53.433],[-2.9675,53.43707],[-2.96334,53.43802],[-2.9626,53.43901],[-2.96192,53.44134],[-2.96068,53.44275],[-2.95781,53.4421]]]}},{"type":"Feature","properties":{"ward":"Arundel"},"geometry":{"type":"Polygon","coordinates":[[[-2.94141,53.39594],[-2.93633,53.39421],[-2.92992,53.39019],[-2.93961,53.38931],[-2.93967,53.38853],[-2.94094,53.38849],[-2.94118,53.38907],[-2.94271,53.38872],[-2.94512,53.38941],[-2.94487,53.39113],[-2.94855,53.39183],[-2.94891,53.39214],[-2.94904,53.39176],[-2.94943,53.39176],[-2.94916,53.39315],[-2.94976,53.39859],[-2.94141,53.39594]]]}},{"type":"Feature","properties":{"ward":"Belle Vale"},"geometry":{"type":"Polygon","coordinates":[[[-2.87192,53.40044],[-2.87046,53.39932],[-2.8664,53.39848],[-2.85622,53.39496],[-2.84974,53.39732],[-2.84804,53.39695],[-2.84501,53.39806],[-2.83735,53.39987],[-2.83667,53.39827],[-2.83535,53.39694],[-2.83458,53.39638],[-2.83402,53.39663],[-2.83355,53.3961],[-2.83332,53.39488],[-2.83245,53.39369],[-2.83201,53.39198],[-2.83287,53.39075],[-2.83271,53.38991],[-2.83365,53.38894],[-2.83155,53.38759],[-2.82994,53.38707],[-2.82871,53.38591],[-2.82615,53.38492],[-2.82506,53.38372],[-2.8227,53.38212],[-2.82195,53.38067],[-2.82302,53.38017],[-2.8242,53.38009],[-2.82511,53.38055],[-2.82792,53.38032],[-2.82907,53.38099],[-2.83088,53.38098],[-2.83244,53.38162],[-2.83498,53.38121],[-2.84172,53.38158],[-2.84443,53.38206],[-2.8466,53.38187],[-2.84794,53.38115],[-2.85185,53.38089],[-2.8538,53.37982],[-2.85899,53.38415],[-2.85665,53.38575],[-2.85642,53.38695],[-2.85765,53.38694],[-2.86034,53.38772],[-2.8597,53.38849],[-2.86055,53.38873],[-2.8616,53.38969],[-2.86385,53.38809],[-2.87658,53.39731],[-2.88099,53.39999],[-2.87518,53.4003],[-2.87502,53.40063],[-2.87192,53.40044]]]}},{"type":"Feature","properties":{"ward":"Broadgreen"},"geometry":{"type":"Polygon","coordinates":[[[-2.89746,53.41431],[-2.89435,53.41243],[-2.89266,53.41081],[-2.89241,53.41092],[-2.89054,53.40693],[-2.89643,53.40606],[-2.9015,53.40702],[-2.90315,53.40785],[-2.90573,53.40759],[-2.90898,53.40769],[-2.91436,53.40949],[-2.91318,53.40961],[-2.91098,53.41083],[-2.91103,53.41124],[-2.90395,53.41341],[-2.90751,53.41794],[-2.90789,53.41925],[-2.90333,53.42034],[-2.90231,53.41835],[-2.90056,53.41632],[-2.89746,53.41431]]]}},{"type":"Feature","properties":{"ward":"Brownlow Hill"},"geometry":{"type":"Polygon","coordinates":[[[-2.96124,53.4102],[-2.96195,53.4031],[-2.97358,53.40391],[-2.97737,53.4051],[-2.97806,53.40504],[-2.9797,53.4073],[-2.97845,53.4095],[-2.97837,53.41018],[-2.97925,53.41096],[-2.97142,53.41173],[-2.96227,53.41201],[-2.96124,53.4102]]]}},{"type":"Feature","properties":{"ward":"Calderstones"},"geometry":{"type":"Polygon","coordinates":[[[-2.88413,53.38736],[-2.8831,53.38517],[-2.88227,53.38503],[-2.88242,53.3848],[-2.88165,53.38433],[-2.88488,53.38371],[-2.88342,53.38048],[-2.88619,53.37991],[-2.8865,53.38013],[-2.88854,53.37847],[-2.88994,53.37781],[-2.89353,53.37672],[-2.89418,53.37623],[-2.89615,53.37784],[-2.89997,53.3793],[-2.89949,53.3797],[-2.89997,53.37996],[-2.90058,53.38013],[-2.90104,53.3798],[-2.90503,53.38147],[-2.90279,53.38247],[-2.90375,53.38439],[-2.90468,53.38415],[-2.90457,53.38364],[-2.90649,53.3836],[-2.90753,53.38524],[-2.91058,53.38779],[-2.90946,53.38806],[-2.90923,53.38845],[-2.90498,53.39026],[-2.9029,53.39153],[-2.89919,53.39044],[-2.88413,53.38736]]]}},{"type":"Feature","properties":{"ward":"Canning"},"geometry":{"type":"Polygon","coordinates":[[[-2.95855,53.40723],[-2.95797,53.40659],[-2.95437,53.40526],[-2.95413,53.40003],[-2.95535,53.39993],[-2.95537,53.3996],[-2.95476,53.39801],[-2.96769,53.39606],[-2.97112,53.39546],[-2.97136,53.39867],[-2.97493,53.39951],[-2.97358,53.40391],[-2.96195,53.4031],[-2.96146,53.40754],[-2.95855,53.40723]]]}},{"type":"Feature","properties":{"ward":"Childwall"},"geometry":{"type":"Polygon","coordinates":[[[-2.87192,53.40044],[-2.87502,53.40063],[-2.87518,53.4003],[-2.88097,53.39999],[-2.88731,53.39898],[-2.88485,53.39782],[-2.88175,53.39499],[-2.87901,53.39394],[-2.87439,53.39149],[-2.88094,53.38815],[-2.88104,53.38754],[-2.88191,53.38814],[-2.88247,53.38814],[-2.88322,53.38719],[-2.89919,53.39044],[-2.9029,53.39153],[-2.89755,53.39629],[-2.89703,53.39726],[-2.89988,53.40499],[-2.9015,53.40702],[-2.89643,53.40606],[-2.89054,53.40693],[-2.88168,53.40804],[-2.88141,53.40718],[-2.87535,53.401],[-2.87275,53.4017],[-2.87192,53.40044]]]}},{"type":"Feature","properties":{"ward":"Church"},"geometry":{"type":"Polygon","coordinates":[[[-2.91377,53.39815],[-2.91136,53.39802],[-2.90432,53.39653],[-2.89703,53.39726],[-2.89755,53.39629],[-2.9029,53.39153],[-2.90498,53.39026],[-2.90923,53.38845],[-2.90946,53.38806],[-2.91058,53.38779],[-2.91286,53.38863],[-2.92332,53.3901],[-2.91922,53.3919],[-2.91714,53.39244],[-2.91839,53.39645],[-2.91852,53.39855],[-2.91377,53.39815]]]}},{"type":"Feature","properties":{"ward":"City Centre North"},"geometry":{"type":"Polygon","coordinates":[[[-2.97925,53.41096],[-2.97837,53.41018],[-2.97845,53.4095],[-2.9797,53.4073],[-2.9783,53.40532],[-2.98127,53.40469],[-2.98604,53.40254],[-2.98605,53.4014],[-2.98815,53.4003],[-2.98975,53.40222],[-2.99513,53.40647],[-2.99926,53.41166],[-2.99912,53.4126],[-2.99655,53.41264],[-2.99641,53.41192],[-2.99355,53.41243],[-2.98211,53.41387],[-2.98182,53.41357],[-2.97966,53.41339],[-2.9793,53.41284],[-2.98145,53.411],[-2.97925,53.41096]]]}},{"type":"Feature","properties":{"ward":"City Centre South"},"geometry":{"type":"Polygon","coordinates":[[[-2.97358,53.40391],[-2.97493,53.39951],[-2.97136,53.39867],[-2.97112,53.39546],[-2.97599,53.39465],[-2.9803,53.39404],[-2.9828,53.39408],[-2.98624,53.39751],[-2.98815,53.4003],[-2.98605,53.4014],[-2.98604,53.40254],[-2.98127,53.40469],[-2.9783,53.40532],[-2.97806,53.40504],[-2.97737,53.4051],[-2.97358,53.40391]]]}},{"type":"Feature","properties":{"ward":"Clubmoor East"},"geometry":{"type":"Polygon","coordinates":[[[-2.92103,53.4345],[-2.9227,53.43335],[-2.92397,53.43166],[-2.92666,53.43404],[-2.93785,53.43891],[-2.93802,53.44084],[-2.93915,53.4436],[-2.94267,53.44825],[-2.93614,53.45032],[-2.93396,53.44759],[-2.93116,53.44568],[-2.93221,53.44198],[-2.92103,53.4345]]]}},{"type":"Feature","properties":{"ward":"Clubmoor West"},"geometry":{"type":"Polygon","coordinates":[[[-2.9329,53.43677],[-2.93498,53.43476],[-2.93807,53.43366],[-2.93996,53.43252],[-2.94203,53.43525],[-2.9443,53.43696],[-2.9468,53.43825],[-2.95156,53.43997],[-2.95078,53.44036],[-2.95345,53.44246],[-2.95655,53.44397],[-2.94267,53.44825],[-2.93915,53.4436],[-2.93802,53.44084],[-2.93785,53.43891],[-2.9329,53.43677]]]}},{"type":"Feature","properties":{"ward":"County"},"geometry":{"type":"Polygon","coordinates":[[[-2.95436,53.4446],[-2.95655,53.44397],[-2.95345,53.44246],[-2.95078,53.44036],[-2.95156,53.43997],[-2.95781,53.4421],[-2.96068,53.44275],[-2.96192,53.44134],[-2.9626,53.43901],[-2.96334,53.43802],[-2.9675,53.43707],[-2.96802,53.43776],[-2.97158,53.43822],[-2.97531,53.44325],[-2.97491,53.44332],[-2.97626,53.44529],[-2.97497,53.44651],[-2.97486,53.4474],[-2.96624,53.44758],[-2.96311,53.44902],[-2.96173,53.44895],[-2.96262,53.44744],[-2.95925,53.44586],[-2.95628,53.44678],[-2.95436,53.4446]]]}},{"type":"Feature","properties":{"ward":"Croxteth"},"geometry":{"type":"Polygon","coordinates":[[[-2.89144,53.46312],[-2.89117,53.4627],[-2.88998,53.46241],[-2.8901,53.4615],[-2.88954,53.46105],[-2.8878,53.46054],[-2.88709,53.45994],[-2.88094,53.45712],[-2.88177,53.45649],[-2.88237,53.45679],[-2.88543,53.45704],[-2.88707,53.45504],[-2.88814,53.4548],[-2.88925,53.45256],[-2.8917,53.4531],[-2.89361,53.45381],[-2.89359,53.45408],[-2.89648,53.45482],[-2.89708,53.45245],[-2.89755,53.45226],[-2.89727,53.45179],[-2.89768,53.45056],[-2.89732,53.44807],[-2.89635,53.44764],[-2.89942,53.44623],[-2.90078,53.44738],[-2.90276,53.45063],[-2.90413,53.45001],[-2.90518,53.44892],[-2.90641,53.4494],[-2.90848,53.45128],[-2.9131,53.44926],[-2.91737,53.45206],[-2.92001,53.45462],[-2.91621,53.45681],[-2.89782,53.46209],[-2.89182,53.46324],[-2.89144,53.46312]]]}},{"type":"Feature","properties":{"ward":"Croxteth Country Park"},"geometry":{"type":"Polygon","coordinates":[[[-2.87059,53.44253],[-2.87392,53.44201],[-2.87547,53.44305],[-2.87593,53.44384],[-2.88104,53.44241],[-2.88304,53.44255],[-2.8872,53.44049],[-2.88725,53.44008],[-2.88896,53.43895],[-2.89182,53.4395],[-2.89498,53.44077],[-2.89942,53.44623],[-2.89635,53.44764],[-2.89732,53.44807],[-2.89768,53.45056],[-2.89727,53.45179],[-2.89755,53.45226],[-2.89708,53.45245],[-2.89648,53.45482],[-2.89359,53.45408],[-2.89361,53.45381],[-2.8917,53.4531],[-2.88925,53.45256],[-2.88814,53.4548],[-2.88707,53.45504],[-2.88543,53.45704],[-2.88237,53.45679],[-2.88177,53.45649],[-2.88094,53.45712],[-2.87512,53.45476],[-2.87416,53.45391],[-2.87209,53.45322],[-2.86964,53.45055],[-2.86786,53.44929],[-2.86824,53.4447],[-2.87005,53.44363],[-2.87059,53.44253]]]}},{"type":"Feature","properties":{"ward":"Dingle"},"geometry":{"type":"Polygon","coordinates":[[[-2.95902,53.38669],[-2.95523,53.38227],[-2.95608,53.38165],[-2.96019,53.37918],[-2.96328,53.38057],[-2.96527,53.37929],[-2.96463,53.37894],[-2.96604,53.37798],[-2.97084,53.38052],[-2.9725,53.38002],[-2.97605,53.38229],[-2.97951,53.38629],[-2.9828,53.39408],[-2.9803,53.39404],[-2.97599,53.39465],[-2.97517,53.3938],[-2.97239,53.39235],[-2.96748,53.38632],[-2.96436,53.38851],[-2.96052,53.3866],[-2.95902,53.38669]]]}},{"type":"Feature","properties":{"ward":"Edge Hill"},"geometry":{"type":"Polygon","coordinates":[[[-2.93989,53.40324],[-2.93676,53.40248],[-2.93913,53.39891],[-2.93952,53.39901],[-2.94039,53.39842],[-2.93932,53.39809],[-2.94141,53.39594],[-2.94976,53.39859],[-2.95061,53.39877],[-2.95476,53.39801],[-2.95537,53.3996],[-2.95535,53.39993],[-2.95413,53.40003],[-2.95437,53.40526],[-2.95797,53.40659],[-2.95855,53.40723],[-2.95189,53.40724],[-2.94833,53.4082],[-2.94402,53.40825],[-2.93951,53.40892],[-2.93845,53.40604],[-2.93713,53.40635],[-2.93939,53.40435],[-2.9428,53.40363],[-2.93989,53.40324]]]}},{"type":"Feature","properties":{"ward":"Everton East"},"geometry":{"type":"Polygon","coordinates":[[[-2.94778,53.42124],[-2.94626,53.41727],[-2.96223,53.41426],[-2.96718,53.41796],[-2.96773,53.41947],[-2.96523,53.4201],[-2.96314,53.42161],[-2.96053,53.42222],[-2.95454,53.42464],[-2.95234,53.42605],[-2.95059,53.4251],[-2.95032,53.42524],[-2.94932,53.42444],[-2.94791,53.42518],[-2.94733,53.42482],[-2.9476,53.42466],[-2.94672,53.42415],[-2.94935,53.42245],[-2.94778,53.42124]]]}},{"type":"Feature","properties":{"ward":"Everton North"},"geometry":{"type":"Polygon","coordinates":[[[-2.95454,53.42464],[-2.96053,53.42222],[-2.96314,53.42161],[-2.96523,53.4201],[-2.96773,53.41947],[-2.96907,53.42085],[-2.96904,53.42232],[-2.97028,53.42447],[-2.97338,53.43098],[-2.97147,53.43139],[-2.9659,53.43078],[-2.95993,53.42948],[-2.95696,53.42633],[-2.95454,53.42464]]]}},{"type":"Feature","properties":{"ward":"Everton West"},"geometry":{"type":"Polygon","coordinates":[[[-2.96773,53.41947],[-2.96718,53.41796],[-2.96223,53.41426],[-2.96285,53.41381],[-2.96227,53.41201],[-2.97142,53.41173],[-2.97925,53.41096],[-2.98145,53.411],[-2.9793,53.41284],[-2.97966,53.41339],[-2.98182,53.41357],[-2.98211,53.41387],[-2.9821,53.42319],[-2.98069,53.42333],[-2.98054,53.4226],[-2.97747,53.4228],[-2.97245,53.42376],[-2.97264,53.42415],[-2.97028,53.42447],[-2.96904,53.42232],[-2.96907,53.42085],[-2.96773,53.41947]]]}},{"type":"Feature","properties":{"ward":"Fazakerley East"},"geometry":{"type":"Polygon","coordinates":[[[-2.89182,53.46324],[-2.89782,53.46209],[-2.91621,53.45681],[-2.92001,53.45462],[-2.92224,53.45747],[-2.92477,53.45931],[-2.92729,53.4641],[-2.93169,53.46814],[-2.93193,53.46909],[-2.9375,53.46873],[-2.92812,53.47342],[-2.92762,53.47334],[-2.92262,53.47498],[-2.92004,53.47326],[-2.92109,53.47264],[-2.91866,53.46831],[-2.91576,53.46885],[-2.91438,53.46501],[-2.91377,53.46487],[-2.9125,53.46526],[-2.90596,53.46499],[-2.90492,53.46525],[-2.90394,53.46753],[-2.90593,53.47018],[-2.90032,53.46916],[-2.89515,53.46718],[-2.89489,53.46599],[-2.8953,53.46592],[-2.8947,53.46493],[-2.894,53.46467],[-2.89418,53.46438],[-2.89304,53.4634],[-2.89182,53.46324]]]}},{"type":"Feature","properties":{"ward":"Fazakerley North"},"geometry":{"type":"Polygon","coordinates":[[[-2.92812,53.47342],[-2.9433,53.46581],[-2.94432,53.46811],[-2.95453,53.46525],[-2.95593,53.4672],[-2.95545,53.4724],[-2.95484,53.47265],[-2.94788,53.47304],[-2.94716,53.47213],[-2.94612,53.47296],[-2.93983,53.47333],[-2.93983,53.47361],[-2.9334,53.47386],[-2.93336,53.47315],[-2.92719,53.47397],[-2.92812,53.47342]]]}},{"type":"Feature","properties":{"ward":"Fazakerley West"},"geometry":{"type":"Polygon","coordinates":[[[-2.92001,53.45463],[-2.92219,53.45383],[-2.9287,53.45246],[-2.93614,53.45032],[-2.93915,53.45376],[-2.94385,53.45518],[-2.9459,53.45624],[-2.95069,53.46077],[-2.95334,53.4644],[-2.95453,53.46525],[-2.94432,53.46811],[-2.9433,53.46581],[-2.9375,53.46873],[-2.93193,53.46909],[-2.93169,53.46814],[-2.92729,53.4641],[-2.92477,53.45931],[-2.92224,53.45747],[-2.92001,53.45463]]]}},{"type":"Feature","properties":{"ward":"Festival Gardens"},"geometry":{"type":"Polygon","coordinates":[[[-2.95608,53.38165],[-2.95438,53.381],[-2.95601,53.37954],[-2.95761,53.37986],[-2.95787,53.37963],[-2.95806,53.37827],[-2.9572,53.37795],[-2.95766,53.37738],[-2.95405,53.37618],[-2.95288,53.37567],[-2.95288,53.3753],[-2.95199,53.37496],[-2.95175,53.37517],[-2.94221,53.37094],[-2.93799,53.37476],[-2.93609,53.3743],[-2.9343,53.37309],[-2.93536,53.37143],[-2.9408,53.36697],[-2.9405,53.36678],[-2.94094,53.36624],[-2.94203,53.36597],[-2.94236,53.36576],[-2.94574,53.36719],[-2.96378,53.37347],[-2.96765,53.37561],[-2.96901,53.37597],[-2.9693,53.3758],[-2.97256,53.37761],[-2.97292,53.37812],[-2.97366,53.37821],[-2.97357,53.37873],[-2.97465,53.37878],[-2.97863,53.3812],[-2.98307,53.38472],[-2.98334,53.38572],[-2.98181,53.38568],[-2.97951,53.38629],[-2.97605,53.38229],[-2.9725,53.38002],[-2.97084,53.38052],[-2.96604,53.37798],[-2.96463,53.37894],[-2.96527,53.37929],[-2.96328,53.38057],[-2.96019,53.37918],[-2.95608,53.38165]]]}},{"type":"Feature","properties":{"ward":"Garston"},"geometry":{"type":"Polygon","coordinates":[[[-2.88726,53.35722],[-2.88252,53.35454],[-2.87813,53.35333],[-2.87554,53.35313],[-2.86458,53.35347],[-2.86686,53.34568],[-2.86757,53.34499],[-2.86845,53.34198],[-2.8706,53.34325],[-2.87817,53.33902],[-2.87912,53.33863],[-2.88068,53.33852],[-2.88062,53.33828],[-2.88285,53.33702],[-2.88263,53.33654],[-2.88302,53.33627],[-2.90323,53.34485],[-2.9049,53.34569],[-2.90738,53.34748],[-2.90704,53.34774],[-2.90824,53.34812],[-2.90987,53.34954],[-2.91444,53.35215],[-2.91544,53.35321],[-2.91485,53.35386],[-2.91388,53.35464],[-2.9136,53.35452],[-2.91081,53.35748],[-2.91118,53.35759],[-2.90994,53.35957],[-2.91079,53.36002],[-2.91011,53.36075],[-2.90762,53.36206],[-2.90322,53.36124],[-2.90071,53.36293],[-2.89938,53.36451],[-2.88726,53.35722]]]}},{"type":"Feature","properties":{"ward":"Gateacre"},"geometry":{"type":"Polygon","coordinates":[[[-2.85702,53.38255],[-2.85719,53.38223],[-2.85792,53.38225],[-2.86644,53.37957],[-2.86659,53.38224],[-2.86807,53.38361],[-2.88322,53.38719],[-2.88247,53.38814],[-2.88191,53.38814],[-2.88104,53.38754],[-2.88094,53.38815],[-2.87439,53.39149],[-2.87901,53.39394],[-2.88175,53.39499],[-2.88485,53.39782],[-2.88731,53.39898],[-2.88099,53.39999],[-2.87658,53.39731],[-2.86385,53.38809],[-2.8616,53.38969],[-2.86055,53.38873],[-2.8597,53.38849],[-2.86034,53.38772],[-2.85765,53.38694],[-2.85642,53.38695],[-2.85665,53.38575],[-2.85899,53.38415],[-2.85702,53.38255]]]}},{"type":"Feature","properties":{"ward":"Grassendale & Cressington"},"geometry":{"type":"Polygon","coordinates":[[[-2.89938,53.36451],[-2.90071,53.36293],[-2.90322,53.36124],[-2.90762,53.36206],[-2.91011,53.36075],[-2.91079,53.36002],[-2.90994,53.35957],[-2.91118,53.35759],[-2.91081,53.35748],[-2.9136,53.35452],[-2.91388,53.35464],[-2.91485,53.35386],[-2.91544,53.35321],[-2.91592,53.35372],[-2.91892,53.35493],[-2.92243,53.35725],[-2.92237,53.35729],[-2.92401,53.3584],[-2.9168,53.36343],[-2.91685,53.36368],[-2.91439,53.36488],[-2.91473,53.36577],[-2.91001,53.36671],[-2.90787,53.36763],[-2.90908,53.36854],[-2.90854,53.36872],[-2.9083,53.36848],[-2.90678,53.36903],[-2.89938,53.36451]]]}},{"type":"Feature","properties":{"ward":"Greenbank Park"},"geometry":{"type":"Polygon","coordinates":[[[-2.92414,53.39011],[-2.92233,53.38736],[-2.91538,53.37922],[-2.92125,53.37646],[-2.92621,53.37548],[-2.93164,53.37562],[-2.93404,53.37613],[-2.93199,53.37852],[-2.93149,53.38045],[-2.93263,53.3838],[-2.93395,53.38536],[-2.93573,53.38669],[-2.93794,53.38752],[-2.9421,53.38795],[-2.94271,53.38872],[-2.94118,53.38907],[-2.94094,53.38849],[-2.93967,53.38853],[-2.93961,53.38931],[-2.92992,53.39019],[-2.92687,53.38969],[-2.92414,53.39011]]]}},{"type":"Feature","properties":{"ward":"Kensington & Fairfield"},"geometry":{"type":"Polygon","coordinates":[[[-2.93513,53.42397],[-2.92743,53.41027],[-2.93295,53.40996],[-2.94402,53.40825],[-2.94833,53.4082],[-2.95189,53.40724],[-2.95855,53.40723],[-2.96146,53.40754],[-2.96124,53.4102],[-2.96227,53.41201],[-2.96285,53.41381],[-2.96223,53.41426],[-2.94626,53.41727],[-2.94778,53.42124],[-2.94442,53.42209],[-2.94056,53.42247],[-2.93513,53.42397]]]}},{"type":"Feature","properties":{"ward":"Kirkdale East"},"geometry":{"type":"Polygon","coordinates":[[[-2.97531,53.44325],[-2.97158,53.43822],[-2.96802,53.43776],[-2.9675,53.43707],[-2.9692,53.433],[-2.97147,53.43139],[-2.97667,53.43031],[-2.97923,53.42801],[-2.97938,53.43046],[-2.97665,53.43287],[-2.97471,53.43706],[-2.9785,53.44006],[-2.98002,53.44075],[-2.98074,53.44135],[-2.98106,53.44235],[-2.97983,53.44254],[-2.97909,53.44333],[-2.97761,53.44285],[-2.97531,53.44325]]]}},{"type":"Feature","properties":{"ward":"Kirkdale West"},"geometry":{"type":"Polygon","coordinates":[[[-2.97923,53.42801],[-2.98774,53.4278],[-2.9883,53.42577],[-2.99326,53.42542],[-2.9917,53.43006],[-2.98676,53.43586],[-2.98747,53.4376],[-2.99105,53.44021],[-2.99045,53.44059],[-2.98106,53.44235],[-2.98074,53.44135],[-2.98002,53.44075],[-2.9785,53.44006],[-2.97471,53.43706],[-2.97665,53.43287],[-2.97938,53.43046],[-2.97923,53.42801]]]}},{"type":"Feature","properties":{"ward":"Knotty Ash & Dovecot Park"},"geometry":{"type":"Polygon","coordinates":[[[-2.86869,53.41559],[-2.87116,53.41238],[-2.88133,53.41614],[-2.8841,53.41688],[-2.88824,53.41453],[-2.88929,53.41341],[-2.88974,53.41351],[-2.89111,53.41236],[-2.89236,53.41183],[-2.89241,53.41092],[-2.89266,53.41081],[-2.89435,53.41243],[-2.89746,53.41431],[-2.89695,53.41478],[-2.89374,53.41495],[-2.89165,53.41576],[-2.89361,53.41787],[-2.89248,53.41827],[-2.89274,53.41841],[-2.88121,53.41966],[-2.86794,53.42057],[-2.86768,53.41973],[-2.86631,53.41918],[-2.86593,53.4183],[-2.86869,53.41559]]]}},{"type":"Feature","properties":{"ward":"Mossley Hill"},"geometry":{"type":"Polygon","coordinates":[[[-2.90783,53.3698],[-2.90678,53.36903],[-2.9083,53.36848],[-2.90854,53.36872],[-2.90908,53.36854],[-2.90787,53.36763],[-2.91001,53.36671],[-2.91473,53.36577],[-2.91439,53.36488],[-2.91685,53.36368],[-2.92465,53.36714],[-2.92428,53.36744],[-2.9238,53.36725],[-2.92226,53.36838],[-2.92277,53.3688],[-2.92181,53.36966],[-2.92909,53.37367],[-2.93164,53.37562],[-2.92621,53.37548],[-2.92125,53.37646],[-2.91538,53.37922],[-2.91207,53.37399],[-2.90783,53.3698]]]}},{"type":"Feature","properties":{"ward":"Much Woolton & Hunts Cross"},"geometry":{"type":"Polygon","coordinates":[[[-2.8538,53.37982],[-2.85619,53.37875],[-2.85399,53.37703],[-2.8524,53.37224],[-2.85203,53.36941],[-2.85367,53.36568],[-2.8535,53.36351],[-2.85208,53.36123],[-2.84634,53.35398],[-2.87554,53.35313],[-2.87813,53.35333],[-2.88252,53.35454],[-2.88726,53.35722],[-2.88429,53.357],[-2.8804,53.35716],[-2.86523,53.35929],[-2.87136,53.36488],[-2.87375,53.37112],[-2.87143,53.37254],[-2.8657,53.37406],[-2.8671,53.37587],[-2.86644,53.37957],[-2.85792,53.38225],[-2.85719,53.38223],[-2.85702,53.38255],[-2.8538,53.37982]]]}},{"type":"Feature","properties":{"ward":"Norris Green"},"geometry":{"type":"Polygon","coordinates":[[[-2.92001,53.45462],[-2.91737,53.45206],[-2.9131,53.44926],[-2.90974,53.44682],[-2.90585,53.44245],[-2.91789,53.43628],[-2.92103,53.4345],[-2.93221,53.44198],[-2.93116,53.44568],[-2.93396,53.44759],[-2.93614,53.45032],[-2.9287,53.45246],[-2.92219,53.45383],[-2.92001,53.45462]]]}},{"type":"Feature","properties":{"ward":"Old Swan East"},"geometry":{"type":"Polygon","coordinates":[[[-2.90789,53.41925],[-2.90751,53.41794],[-2.90395,53.41341],[-2.91103,53.41124],[-2.91098,53.41083],[-2.91318,53.40961],[-2.91436,53.40949],[-2.91752,53.4099],[-2.91411,53.41332],[-2.91571,53.41916],[-2.9144,53.41976],[-2.91448,53.42136],[-2.91404,53.42215],[-2.91005,53.42111],[-2.90789,53.41925]]]}},{"type":"Feature","properties":{"ward":"Old Swan West"},"geometry":{"type":"Polygon","coordinates":[[[-2.91604,53.42029],[-2.91411,53.41332],[-2.91752,53.4099],[-2.91436,53.40949],[-2.91365,53.40565],[-2.92155,53.40536],[-2.93989,53.40324],[-2.9428,53.40363],[-2.93939,53.40435],[-2.93713,53.40635],[-2.93845,53.40604],[-2.93951,53.40892],[-2.93295,53.40996],[-2.92743,53.41027],[-2.93174,53.41791],[-2.92484,53.41781],[-2.92188,53.41813],[-2.91952,53.41876],[-2.91984,53.41948],[-2.91604,53.42029]]]}},{"type":"Feature","properties":{"ward":"Orrell Park"},"geometry":{"type":"Polygon","coordinates":[[[-2.96018,53.468],[-2.96014,53.46766],[-2.9593,53.46767],[-2.96401,53.45997],[-2.97265,53.4586],[-2.97291,53.45917],[-2.97382,53.46276],[-2.96955,53.46575],[-2.96986,53.46597],[-2.96728,53.46776],[-2.96192,53.46831],[-2.96018,53.468]]]}},{"type":"Feature","properties":{"ward":"Penny Lane"},"geometry":{"type":"Polygon","coordinates":[[[-2.92332,53.3901],[-2.91286,53.38863],[-2.91058,53.38779],[-2.90753,53.38524],[-2.90649,53.3836],[-2.90785,53.38324],[-2.90797,53.38286],[-2.91538,53.37922],[-2.92233,53.38736],[-2.92415,53.39012],[-2.92332,53.3901]]]}},{"type":"Feature","properties":{"ward":"Princes Park"},"geometry":{"type":"Polygon","coordinates":[[[-2.94976,53.39859],[-2.94916,53.39315],[-2.94943,53.39176],[-2.94904,53.39176],[-2.94891,53.39214],[-2.94855,53.39183],[-2.94487,53.39113],[-2.94512,53.38941],[-2.94332,53.38888],[-2.94751,53.38731],[-2.95247,53.38409],[-2.95287,53.38434],[-2.95384,53.38401],[-2.95408,53.38349],[-2.95372,53.38328],[-2.95523,53.38227],[-2.95902,53.38669],[-2.95543,53.38923],[-2.95547,53.39033],[-2.96769,53.39606],[-2.95476,53.39801],[-2.95061,53.39877],[-2.94976,53.39859]]]}},{"type":"Feature","properties":{"ward":"Sandfield Park"},"geometry":{"type":"Polygon","coordinates":[[[-2.90498,53.43093],[-2.90523,53.43033],[-2.9086,53.43012],[-2.905,53.42766],[-2.90124,53.42384],[-2.89654,53.42124],[-2.89248,53.41827],[-2.89361,53.41787],[-2.89165,53.41576],[-2.89374,53.41495],[-2.89695,53.41478],[-2.89746,53.41431],[-2.90056,53.41632],[-2.90231,53.41835],[-2.90333,53.42034],[-2.90789,53.41925],[-2.91005,53.42111],[-2.91404,53.42215],[-2.91518,53.42311],[-2.91583,53.42525],[-2.91811,53.4272],[-2.92141,53.42922],[-2.92397,53.43166],[-2.9227,53.43335],[-2.92103,53.4345],[-2.91789,53.43628],[-2.91621,53.43585],[-2.91136,53.43314],[-2.90857,53.43224],[-2.90801,53.43265],[-2.90498,53.43093]]]}},{"type":"Feature","properties":{"ward":"Sefton Park"},"geometry":{"type":"Polygon","coordinates":[[[-2.94271,53.38872],[-2.9421,53.38795],[-2.93794,53.38752],[-2.93573,53.38669],[-2.93395,53.38536],[-2.93263,53.3838],[-2.93149,53.38045],[-2.93199,53.37852],[-2.93404,53.37613],[-2.93298,53.37591],[-2.93515,53.37372],[-2.93609,53.3743],[-2.93799,53.37476],[-2.95608,53.38165],[-2.95372,53.38328],[-2.95408,53.38349],[-2.95384,53.38401],[-2.95287,53.38434],[-2.95247,53.38409],[-2.94751,53.38731],[-2.94332,53.38888],[-2.94271,53.38872]]]}},{"type":"Feature","properties":{"ward":"Smithdown"},"geometry":{"type":"Polygon","coordinates":[[[-2.92415,53.39012],[-2.92687,53.38969],[-2.92992,53.39019],[-2.93633,53.39421],[-2.94141,53.39594],[-2.93932,53.39809],[-2.94039,53.39842],[-2.93952,53.39901],[-2.93913,53.39891],[-2.93676,53.40248],[-2.93989,53.40324],[-2.93359,53.40396],[-2.93135,53.40353],[-2.92999,53.40268],[-2.92859,53.39728],[-2.92415,53.39012]]]}},{"type":"Feature","properties":{"ward":"Speke"},"geometry":{"type":"Polygon","coordinates":[[[-2.81881,53.348],[-2.81868,53.34636],[-2.81984,53.34366],[-2.81806,53.34299],[-2.81991,53.34117],[-2.81864,53.34074],[-2.81873,53.3398],[-2.82039,53.33987],[-2.82019,53.3404],[-2.82234,53.34069],[-2.82333,53.33734],[-2.8276,53.33785],[-2.83116,53.33776],[-2.83119,53.33727],[-2.83234,53.33729],[-2.83137,53.33499],[-2.82663,53.33167],[-2.82883,53.33098],[-2.83303,53.32851],[-2.83641,53.32702],[-2.84052,53.3268],[-2.85497,53.32747],[-2.86493,53.33015],[-2.87187,53.33248],[-2.87816,53.3342],[-2.88302,53.33627],[-2.88263,53.33654],[-2.88285,53.33702],[-2.88062,53.33828],[-2.88068,53.33852],[-2.87912,53.33863],[-2.87817,53.33902],[-2.8706,53.34325],[-2.86845,53.34198],[-2.86757,53.34499],[-2.86686,53.34568],[-2.86458,53.35347],[-2.84634,53.35398],[-2.84041,53.34733],[-2.83217,53.34666],[-2.82871,53.34697],[-2.8232,53.34805],[-2.8225,53.34777],[-2.81881,53.348]]]}},{"type":"Feature","properties":{"ward":"Springwood"},"geometry":{"type":"Polygon","coordinates":[[[-2.87481,53.3719],[-2.87375,53.37112],[-2.87136,53.36488],[-2.86523,53.35929],[-2.8804,53.35716],[-2.88429,53.357],[-2.88726,53.35722],[-2.90678,53.36903],[-2.90783,53.3698],[-2.90119,53.37146],[-2.89876,53.37273],[-2.89311,53.36678],[-2.89032,53.36828],[-2.88483,53.37019],[-2.87481,53.3719]]]}},{"type":"Feature","properties":{"ward":"St Michaels"},"geometry":{"type":"Polygon","coordinates":[[[-2.93799,53.37476],[-2.94221,53.37094],[-2.95175,53.37517],[-2.95199,53.37496],[-2.95288,53.3753],[-2.95288,53.37567],[-2.95405,53.37618],[-2.95766,53.37738],[-2.9572,53.37795],[-2.95806,53.37827],[-2.95787,53.37963],[-2.95761,53.37986],[-2.95601,53.37954],[-2.95438,53.381],[-2.93799,53.37476]]]}},{"type":"Feature","properties":{"ward":"Stoneycroft"},"geometry":{"type":"Polygon","coordinates":[[[-2.91404,53.42215],[-2.91448,53.42136],[-2.9144,53.41976],[-2.91571,53.41916],[-2.91604,53.42029],[-2.91984,53.41948],[-2.91952,53.41876],[-2.92188,53.41813],[-2.92484,53.41781],[-2.93174,53.41791],[-2.93513,53.42397],[-2.9306,53.42505],[-2.9285,53.42593],[-2.92752,53.42589],[-2.92416,53.4268],[-2.9208,53.42682],[-2.91811,53.4272],[-2.91583,53.42525],[-2.91518,53.42311],[-2.91404,53.42215]]]}},{"type":"Feature","properties":{"ward":"Toxteth"},"geometry":{"type":"Polygon","coordinates":[[[-2.95902,53.38669],[-2.96052,53.3866],[-2.96436,53.38851],[-2.96748,53.38632],[-2.97239,53.39235],[-2.97517,53.3938],[-2.97599,53.39465],[-2.96769,53.39606],[-2.95547,53.39033],[-2.95543,53.38923],[-2.95902,53.38669]]]}},{"type":"Feature","properties":{"ward":"Tuebrook Breckside Park"},"geometry":{"type":"Polygon","coordinates":[[[-2.93513,53.42397],[-2.94056,53.42247],[-2.94442,53.42209],[-2.94778,53.42124],[-2.94935,53.42245],[-2.94672,53.42415],[-2.9476,53.42466],[-2.94733,53.42482],[-2.94791,53.42518],[-2.94932,53.42444],[-2.95032,53.42524],[-2.95059,53.4251],[-2.95234,53.42605],[-2.94957,53.42828],[-2.94554,53.42962],[-2.93995,53.43252],[-2.93513,53.42397]]]}},{"type":"Feature","properties":{"ward":"Tuebrook Larkhill"},"geometry":{"type":"Polygon","coordinates":[[[-2.92397,53.43166],[-2.92141,53.42922],[-2.91811,53.4272],[-2.9208,53.42682],[-2.92416,53.4268],[-2.92752,53.42589],[-2.9285,53.42593],[-2.9306,53.42505],[-2.93513,53.42397],[-2.93996,53.43252],[-2.93807,53.43366],[-2.93498,53.43476],[-2.9329,53.43677],[-2.92666,53.43404],[-2.92397,53.43166]]]}},{"type":"Feature","properties":{"ward":"Vauxhall"},"geometry":{"type":"Polygon","coordinates":[[[-2.97028,53.42447],[-2.97264,53.42415],[-2.97245,53.42376],[-2.97747,53.4228],[-2.98054,53.4226],[-2.98069,53.42333],[-2.9821,53.42319],[-2.98211,53.41387],[-2.99355,53.41243],[-2.99456,53.41634],[-2.99457,53.42051],[-2.99326,53.42542],[-2.9883,53.42577],[-2.98774,53.4278],[-2.97923,53.42801],[-2.97667,53.43031],[-2.97338,53.43098],[-2.97028,53.42447]]]}},{"type":"Feature","properties":{"ward":"Walton"},"geometry":{"type":"Polygon","coordinates":[[[-2.95545,53.4724],[-2.95593,53.4672],[-2.95453,53.46525],[-2.95334,53.4644],[-2.95069,53.46077],[-2.9459,53.45624],[-2.94385,53.45518],[-2.93915,53.45376],[-2.93614,53.45032],[-2.95436,53.4446],[-2.95628,53.44678],[-2.95925,53.44586],[-2.96262,53.44744],[-2.96173,53.44895],[-2.96311,53.44902],[-2.96624,53.44758],[-2.97339,53.44745],[-2.97373,53.44971],[-2.97302,53.44972],[-2.97158,53.45226],[-2.97165,53.45624],[-2.97265,53.4586],[-2.96401,53.45997],[-2.95861,53.46879],[-2.95808,53.46875],[-2.95631,53.47299],[-2.95545,53.4724]]]}},{"type":"Feature","properties":{"ward":"Waterfront North"},"geometry":{"type":"Polygon","coordinates":[[[-2.99105,53.44021],[-2.98747,53.4376],[-2.98676,53.43586],[-2.9917,53.43006],[-2.99326,53.42542],[-2.99457,53.42051],[-2.99456,53.41634],[-2.99355,53.41243],[-2.99641,53.41192],[-2.99655,53.41264],[-2.99912,53.4126],[-2.99926,53.41166],[-3.00065,53.41131],[-3.00124,53.41151],[-3.00176,53.41136],[-3.00175,53.41151],[-3.00246,53.41152],[-3.00261,53.41267],[-3.00313,53.41258],[-3.00516,53.41934],[-3.00542,53.42074],[-3.00485,53.42096],[-3.00474,53.42143],[-3.00513,53.42154],[-3.00474,53.42182],[-3.00567,53.42232],[-3.00593,53.42562],[-3.0065,53.42569],[-3.00606,53.42612],[-3.00657,53.42587],[-3.00635,53.42628],[-3.00694,53.4264],[-3.00635,53.42731],[-3.00715,53.43325],[-3.00875,53.43838],[-3.00755,53.43837],[-3.00545,53.43916],[-3.00509,53.43898],[-2.99998,53.43999],[-3.00021,53.4404],[-2.99399,53.44153],[-2.99269,53.44032],[-2.99166,53.44073],[-2.99105,53.44021]]]}},{"type":"Feature","properties":{"ward":"Waterfront South"},"geometry":{"type":"Polygon","coordinates":[[[-2.98815,53.4003],[-2.98624,53.39751],[-2.9828,53.39408],[-2.97951,53.38629],[-2.98181,53.38568],[-2.98334,53.38572],[-2.98343,53.38607],[-2.98415,53.38615],[-2.984,53.38677],[-2.9845,53.38639],[-2.98497,53.3865],[-2.9865,53.38825],[-2.98627,53.38859],[-2.98695,53.38884],[-2.98795,53.38999],[-2.98669,53.39009],[-2.98681,53.39039],[-2.98814,53.39027],[-2.98807,53.39109],[-2.98891,53.39169],[-2.99506,53.40093],[-2.99501,53.40172],[-2.99589,53.4023],[-2.9996,53.40773],[-2.99995,53.40768],[-3.00185,53.41033],[-3.00176,53.41136],[-3.00124,53.41151],[-3.00065,53.41131],[-2.99926,53.41166],[-2.99513,53.40647],[-2.98975,53.40222],[-2.98815,53.4003]]]}},{"type":"Feature","properties":{"ward":"Wavertree Garden Suburb"},"geometry":{"type":"Polygon","coordinates":[[[-2.9015,53.40702],[-2.89988,53.40499],[-2.89703,53.39726],[-2.90432,53.39653],[-2.91136,53.39802],[-2.91377,53.39815],[-2.9145,53.39963],[-2.91299,53.40291],[-2.91365,53.40565],[-2.91436,53.40949],[-2.90898,53.40769],[-2.90573,53.40759],[-2.90315,53.40785],[-2.9015,53.40702]]]}},{"type":"Feature","properties":{"ward":"Wavertree Village"},"geometry":{"type":"Polygon","coordinates":[[[-2.91377,53.39815],[-2.91852,53.39855],[-2.91839,53.39645],[-2.91714,53.39244],[-2.91922,53.3919],[-2.92332,53.3901],[-2.92415,53.39012],[-2.92859,53.39728],[-2.92999,53.40268],[-2.93135,53.40353],[-2.93359,53.40396],[-2.92155,53.40536],[-2.91365,53.40565],[-2.91299,53.40291],[-2.9145,53.39963],[-2.91377,53.39815]]]}},{"type":"Feature","properties":{"ward":"West Derby Deysbrook"},"geometry":{"type":"Polygon","coordinates":[[[-2.88907,53.43898],[-2.88803,53.43853],[-2.8859,53.43633],[-2.88153,53.43288],[-2.87822,53.43137],[-2.88006,53.43055],[-2.87925,53.43001],[-2.88206,53.42862],[-2.88035,53.42702],[-2.87955,53.4274],[-2.87841,53.42707],[-2.88089,53.42595],[-2.88144,53.42619],[-2.88533,53.42577],[-2.88673,53.42621],[-2.88792,53.42545],[-2.89003,53.42482],[-2.89974,53.42868],[-2.90288,53.429],[-2.90523,53.43033],[-2.90498,53.43093],[-2.90081,53.43281],[-2.8964,53.4356],[-2.88907,53.43898]]]}},{"type":"Feature","properties":{"ward":"West Derby Leyfield"},"geometry":{"type":"Polygon","coordinates":[[[-2.88144,53.42619],[-2.8805,53.42577],[-2.88082,53.42454],[-2.87956,53.42483],[-2.87865,53.42439],[-2.88443,53.42069],[-2.88439,53.42036],[-2.88121,53.41966],[-2.89274,53.41841],[-2.89654,53.42124],[-2.90124,53.42384],[-2.905,53.42766],[-2.9086,53.43012],[-2.90523,53.43033],[-2.90288,53.429],[-2.89974,53.42868],[-2.89003,53.42482],[-2.88792,53.42545],[-2.88673,53.42621],[-2.88533,53.42577],[-2.88144,53.42619]]]}},{"type":"Feature","properties":{"ward":"West Derby Muirhead"},"geometry":{"type":"Polygon","coordinates":[[[-2.89942,53.44623],[-2.89498,53.44077],[-2.89182,53.4395],[-2.88907,53.43898],[-2.8964,53.4356],[-2.90081,53.43281],[-2.90498,53.43093],[-2.90801,53.43265],[-2.90857,53.43224],[-2.91136,53.43314],[-2.91621,53.43585],[-2.91789,53.43628],[-2.90585,53.44245],[-2.90974,53.44682],[-2.9131,53.44926],[-2.90848,53.45128],[-2.90641,53.4494],[-2.90518,53.44892],[-2.90413,53.45001],[-2.90276,53.45063],[-2.90078,53.44738],[-2.89942,53.44623]]]}},{"type":"Feature","properties":{"ward":"Woolton Village"},"geometry":{"type":"Polygon","coordinates":[[[-2.88413,53.38736],[-2.86807,53.38361],[-2.86659,53.38224],[-2.86644,53.37957],[-2.8671,53.37587],[-2.8657,53.37406],[-2.87143,53.37254],[-2.87375,53.37112],[-2.88054,53.37624],[-2.88098,53.37594],[-2.88733,53.37527],[-2.88994,53.37781],[-2.88854,53.37847],[-2.8865,53.38013],[-2.88619,53.37991],[-2.88342,53.38048],[-2.88488,53.38371],[-2.88165,53.38433],[-2.88242,53.3848],[-2.88227,53.38503],[-2.8831,53.38517],[-2.88413,53.38736]]]}},{"type":"Feature","properties":{"ward":"Yew Tree"},"geometry":{"type":"Polygon","coordinates":[[[-2.87059,53.44253],[-2.87012,53.4417],[-2.87084,53.43797],[-2.87342,53.43652],[-2.87196,53.43552],[-2.87266,53.43522],[-2.86879,53.43296],[-2.86939,53.43273],[-2.86891,53.43153],[-2.8693,53.43128],[-2.8686,53.43086],[-2.86748,53.42873],[-2.86618,53.42802],[-2.86635,53.42779],[-2.86814,53.42693],[-2.86856,53.4263],[-2.86945,53.42609],[-2.8701,53.42515],[-2.86822,53.42393],[-2.86889,53.42324],[-2.86794,53.42057],[-2.88121,53.41966],[-2.88439,53.42036],[-2.88443,53.42069],[-2.87865,53.42439],[-2.87956,53.42483],[-2.88082,53.42454],[-2.8805,53.42577],[-2.88089,53.42595],[-2.87841,53.42707],[-2.87955,53.4274],[-2.88035,53.42702],[-2.88206,53.42862],[-2.87925,53.43001],[-2.88006,53.43055],[-2.87822,53.43137],[-2.88153,53.43288],[-2.8859,53.43633],[-2.88803,53.43853],[-2.88896,53.43895],[-2.88725,53.44008],[-2.8872,53.44049],[-2.88304,53.44255],[-2.88104,53.44241],[-2.87593,53.44384],[-2.87547,53.44305],[-2.87392,53.44201],[-2.87059,53.44253]]]}}]}